,Water_System_Number,Water_System_Name,County,City,Zip,Serverd_Populatiion,Service_Connections,Chemical_Detected_2013-2019,Chemical_Detected_Above_MCL_2013-2019,Chemical_Lead,Lead_Sample_Count_2018,Chemical_Arsenic,Arsenic_Sample_Count_2018,Chemical_Iron,Iron_Sample_Count_2018
0,103040,NORRIS CANYON PROPERTY OWNERS ASSN,ALAMEDA,CASTRO VALLEY,94552-9520,50,19.0,3,0.0,Lead (Pb),0.0,Arsenic,0.0,Iron (Fe),0.0
1,103041,TRAILER HAVEN MOBILE HOME PARK,ALAMEDA,SACRAMENTO,95835-2808,543,194.0,6,2.0,Lead (Pb),0.0,Arsenic,0.0,Iron (Fe),0.0
2,105002,RIVERS END MARINA,ALAMEDA,BYRON,94514,250,4.0,12,0.0,Lead (Pb),0.0,Arsenic,0.0,Iron (Fe),0.0
3,105003,CEMEX ELIOT PLANT,ALAMEDA,FOLSOM,95630-8714,40,1.0,12,4.0,Lead (Pb),0.0,Arsenic,0.0,Iron (Fe),0.0
4,105009,MOUNTAIN HOUSE SCHOOL,ALAMEDA,RANCHO SANTA MARGARITA,92688,50,1.0,23,4.0,Lead (Pb),0.0,Arsenic,0.0,Iron (Fe),0.0
5,105010,EBRPD - DEL VALLE REGIONAL PARK,ALAMEDA,OAKLAND,94605-0381,10000,101.0,5,0.0,Lead (Pb),0.0,Arsenic,0.0,Iron (Fe),0.0
6,105012,EBRPD - SUNOL REGIONAL WILDERNESS,ALAMEDA,OAKLAND,94605-0381,35,3.0,2,2.0,Lead (Pb),0.0,Arsenic,0.0,Iron (Fe),0.0
7,105016,MOUNTAIN HOUSE BAR,ALAMEDA,TRACY,95391-9602,25,1.0,3,1.0,Lead (Pb),0.0,Arsenic,0.0,Iron (Fe),0.0
8,105017,RANCHO LOS MOCHOS-BSA CAMP,ALAMEDA,SAN LEANDRO,94577-1514,600,1.0,1,0.0,Lead (Pb),0.0,Arsenic,0.0,Iron (Fe),0.0
9,105018,PURPLE ORCHID RESORT SPA,ALAMEDA,LIVERMORE,94550-9759,45,1.0,2,1.0,Lead (Pb),0.0,Arsenic,0.0,Iron (Fe),0.0
10,105019,SUNOL SUPER STOP,ALAMEDA,SUNOL,94586-9453,155,1.0,4,2.0,Lead (Pb),0.0,Arsenic,0.0,Iron (Fe),1.0
11,105020,ALAMEDA COUNTY FAIRGROUNDS,ALAMEDA,PLEASANTON,94566-7001,82,3.0,7,0.0,Lead (Pb),0.0,Arsenic,0.0,Iron (Fe),0.0
12,110001,ALAMEDA COUNTY WATER DISTRICT,ALAMEDA,FREMONT,94538-6348,351000,84730.0,435,283.0,Lead (Pb),0.0,Arsenic,0.0,Iron (Fe),1.0
13,110003,CALIFORNIA WATER SERVICE - LIVERMORE,ALAMEDA,SAN JOSE,95112-4508,59000,18109.0,805,47.0,Lead (Pb),0.0,Arsenic,0.0,Iron (Fe),0.0
14,110008,CITY OF PLEASANTON,ALAMEDA,DUBLIN,94568-3018,79201,22220.0,18,7.0,Lead (Pb),0.0,Arsenic,0.0,Iron (Fe),1.0
15,110010,ZONE 7 WATER AGENCY,ALAMEDA,LIVERMORE,94551-9486,40,13.0,1231,959.0,Lead (Pb),0.0,Arsenic,0.0,Iron (Fe),8.0
16,110012,TOWN OF SUNOL-SFPUC,ALAMEDA,BURLINGAME,94010,352,124.0,8,8.0,Lead (Pb),0.0,Arsenic,0.0,Iron (Fe),0.0
17,202501,DIAMOND VALLEY SCHOOL,ALPINE,MARKLEEVILLE,96120,100,3.0,8,6.0,Lead (Pb),0.0,Arsenic,0.0,Iron (Fe),0.0
18,202503,WOODFORDS MUTUAL WATER COMPANY,ALPINE,MARKLEEVILLE,96120,50,16.0,1,0.0,Lead (Pb),0.0,Arsenic,0.0,Iron (Fe),0.0
19,202504,MARKLEEVILLE WATER CO.,ALPINE,MARKLEEVILLE,96120,25,167.0,10,5.0,Lead (Pb),0.0,Arsenic,0.0,Iron (Fe),0.0
20,202509,LAKE ALPINE IMP. ASSOC.,ALPINE,COLUMBIA,95310,25,26.0,2,2.0,Lead (Pb),0.0,Arsenic,0.0,Iron (Fe),0.0
21,202512,SORENSON S RESORT,ALPINE,HOPE VALLEY,96120,25,28.0,1,0.0,Lead (Pb),0.0,Arsenic,0.0,Iron (Fe),0.0
22,202515,CARSON RIVER RESORT,ALPINE,MARKLEEVILLE,96120,30,28.0,1,0.0,Lead (Pb),0.0,Arsenic,0.0,Iron (Fe),0.0
23,202520,HOPE VALLEY RESORT,ALPINE,HOPE VALLEY,96120,25,8.0,2,0.0,Lead (Pb),0.0,Arsenic,0.0,Iron (Fe),0.0
24,202522,SIERRA PINES MOBILE HOME PARK,ALPINE,MARKLEEVILLE,96120,70,31.0,5,1.0,Lead (Pb),0.0,Arsenic,0.0,Iron (Fe),0.0
25,202529,HOPE VALLEY CG,ALPINE,MARKLEEVILLE,96120,25,7.0,1,0.0,Lead (Pb),0.0,Arsenic,0.0,Iron (Fe),0.0
26,202530,SILVER CREEK CG,ALPINE,MARKLEEVILLE,96120,25,15.0,1,0.0,Lead (Pb),0.0,Arsenic,0.0,Iron (Fe),0.0
27,202532,CRYSTAL SPRINGS CG,ALPINE,CARSON CITY,89701,25,7.0,2,0.0,Lead (Pb),0.0,Arsenic,0.0,Iron (Fe),0.0
28,202547,CAMP LIAHONA,ALPINE,DARDANELLE,95314,25,8.0,5,3.0,Lead (Pb),0.0,Arsenic,0.0,Iron (Fe),0.0
29,202548,CAMP PEACEFUL PINES,ALPINE,MODESTO,95358,25,13.0,1,0.0,Lead (Pb),0.0,Arsenic,0.0,Iron (Fe),0.0
30,202549,BEAR VALLEY SKI COMPANY,ALPINE,BEAR VALLEY,95223,25,2.0,3,3.0,Lead (Pb),0.0,Arsenic,0.0,Iron (Fe),0.0
31,202562,SAND FLAT # 1,ALPINE,SONORA,95370,25,6.0,3,2.0,Lead (Pb),0.0,Arsenic,0.0,Iron (Fe),0.0
32,202564,SAND FLAT # 3,ALPINE,SONORA,95370,25,6.0,3,2.0,Lead (Pb),0.0,Arsenic,0.0,Iron (Fe),0.0
33,202565,SAND FLAT # 4,ALPINE,SONORA,95370,25,6.0,3,2.0,Lead (Pb),0.0,Arsenic,0.0,Iron (Fe),0.0
34,202566,SAND FLAT # 5,ALPINE,SONORA,95370,25,6.0,2,2.0,Lead (Pb),0.0,Arsenic,0.0,Iron (Fe),0.0
35,210001,LAKE ALPINE WATER COMPANY,ALPINE,BEAR VALLEY,95223,625,487.0,22,11.0,Lead (Pb),0.0,Arsenic,0.0,Iron (Fe),0.0
36,210002,KIRKWOOD MEADOWS PUBLIC UTILITY DISTRICT,ALPINE,KIRKWOOD,95646,7851,863.0,35,11.0,Lead (Pb),0.0,Arsenic,0.0,Iron (Fe),1.0
37,210003,CALTRANS-CAPLES LAKE MAINTENANCE STATION,ALPINE,STOCKTON,95201,24,1.0,6,2.0,Lead (Pb),0.0,Arsenic,0.0,Iron (Fe),0.0
38,300016,VOLCANO COMMUNITY SERVICE DIST,AMADOR,VOLCANO,95689,160,72.0,48,20.0,Lead (Pb),0.0,Arsenic,0.0,Iron (Fe),0.0
39,300019,FIDDLETOWN COMMUNITY SERVICE,AMADOR,FIDDLETOWN,95642,100,65.0,5,5.0,Lead (Pb),0.0,Arsenic,0.0,Iron (Fe),0.0
40,300024,TABEAU MOBILE HOME PARK,AMADOR,JACKSON,95642,25,22.0,47,36.0,Lead (Pb),1.0,Arsenic,0.0,Iron (Fe),3.0
41,300036,BEAR RIVER LAKE RESORT,AMADOR,PIONEER,95666,568,142.0,1,0.0,Lead (Pb),0.0,Arsenic,0.0,Iron (Fe),0.0
42,300037,JACKSON VALLEY IRRIGATION DISTRICT,AMADOR,IONE,95640,2000,190.0,22,16.0,Lead (Pb),0.0,Arsenic,0.0,Iron (Fe),0.0
43,300043,OK CORRAL,AMADOR,LINDEN,95236,25,7.0,1,0.0,Lead (Pb),0.0,Arsenic,0.0,Iron (Fe),0.0
44,300051,KIT CARSON LODGE,AMADOR,KIT CARSON,95644,100,27.0,3,0.0,Lead (Pb),0.0,Arsenic,0.0,Iron (Fe),0.0
45,300053,RANCHO DEL ORO,AMADOR,ORANGEVALE,95662,34,24.0,9,4.0,Lead (Pb),0.0,Arsenic,0.0,Iron (Fe),0.0
46,300060,BLACK'S STATION,AMADOR,PIONEER,95666,25,2.0,2,0.0,Lead (Pb),0.0,Arsenic,0.0,Iron (Fe),0.0
47,300062,HOPE FOUNDATION/MORIAH HEIGHTS,AMADOR,CITRUS HEIGHTS,95610,30,21.0,11,10.0,Lead (Pb),0.0,Arsenic,0.0,Iron (Fe),0.0
48,300064,AMADOR CHRISTIAN CENTER,AMADOR,PLYMOUTH,95669,400,1.0,2,0.0,Lead (Pb),0.0,Arsenic,0.0,Iron (Fe),0.0
49,300078,IONE BAND OF MIWOK INDIANS,AMADOR,PLYMOUTH,95669,62,20.0,11,11.0,Lead (Pb),0.0,Arsenic,0.0,Iron (Fe),0.0
50,300081,VILLA TOSCANO WINERY,AMADOR,PLYMOUTH,95669,100,3.0,1,1.0,Lead (Pb),0.0,Arsenic,0.0,Iron (Fe),0.0
51,300086,GRACE FELLOWSHIP CHURCH,AMADOR,JACKSON,95642,25,2.0,1,0.0,Lead (Pb),0.0,Arsenic,0.0,Iron (Fe),0.0
52,300448,MALLO GOLD MINE PLAZA,AMADOR,PINE GROVE,95665,25,10.0,1,0.0,Lead (Pb),0.0,Arsenic,0.0,Iron (Fe),0.0
53,300524,"MP ASSOCIATES, INC.",AMADOR,IONE,95640,170,2.0,13,7.0,Lead (Pb),0.0,Arsenic,1.0,Iron (Fe),0.0
54,300667,GOLDEN VALLEY CAMP,AMADOR,VOLCANO,95689,40,4.0,2,0.0,Lead (Pb),0.0,Arsenic,0.0,Iron (Fe),0.0
55,301038,PARDEE RECREATION AREA,AMADOR,VALLEY SPRINGS,95252,100,80.0,8,8.0,Lead (Pb),0.0,Arsenic,0.0,Iron (Fe),0.0
56,310002,"AWA, IONE",AMADOR,SUTTER CREEK,95685,6170,1991.0,12,8.0,Lead (Pb),0.0,Arsenic,0.0,Iron (Fe),0.0
57,310004,"PLYMOUTH, CITY OF",AMADOR,SUTTER CREEK,95685,1060,585.0,5,4.0,Lead (Pb),0.0,Arsenic,0.0,Iron (Fe),0.0
58,310005,PINE GROVE COMM SERV DIST,AMADOR,PINE GROVE,95665,846,388.0,2,2.0,Lead (Pb),0.0,Arsenic,0.0,Iron (Fe),0.0
59,310006,RIVER PINES PUD,AMADOR,RIVER PINES,95675,510,216.0,38,18.0,Lead (Pb),0.0,Arsenic,0.0,Iron (Fe),0.0
60,310019,AWA LA MEL HEIGHTS #3,AMADOR,SUTTER CREEK,95685,188,51.0,17,6.0,Lead (Pb),0.0,Arsenic,0.0,Iron (Fe),0.0
61,310020,THE OAKS MOBILE HOME PARK,AMADOR,IONE,95640,600,213.0,24,11.0,Lead (Pb),0.0,Arsenic,0.0,Iron (Fe),0.0
62,310021,AWA - CAMANCHE VILLAGE,AMADOR,SUTTER CREEK,95685,2384,728.0,38,16.0,Lead (Pb),0.0,Arsenic,0.0,Iron (Fe),0.0
63,400001,YOUTH WITH A MISSION-SPRINGS OF LIVING W,BUTTE,RICHARDSON SPRINGS,95973,150,52.0,16,16.0,Lead (Pb),0.0,Arsenic,0.0,Iron (Fe),2.0
64,400003,HARTLEY MUTUAL WATER SYSTEM,BUTTE,FOREST RANCH,95942,31,16.0,5,2.0,Lead (Pb),0.0,Arsenic,0.0,Iron (Fe),0.0
65,400007,BUTTE CREEK ESTATES MUTUAL WATER CO,BUTTE,CHICO,95928,399,168.0,2,2.0,Lead (Pb),0.0,Arsenic,0.0,Iron (Fe),0.0
66,400008,GRAN MUTUAL WATER CO,BUTTE,NELSON,95958,200,94.0,3,2.0,Lead (Pb),0.0,Arsenic,0.0,Iron (Fe),0.0
67,400010,PSEA CAMP - DESABLA,BUTTE,MAGALIA,95954,108,18.0,3,1.0,Lead (Pb),0.0,Arsenic,0.0,Iron (Fe),0.0
68,400012,FARM LABOR HOUSING,BUTTE,CHICO,95928,460,144.0,1,1.0,Lead (Pb),0.0,Arsenic,0.0,Iron (Fe),0.0
69,400013,MERRY MOUNTAIN MUTUAL,BUTTE,CLIPPER MILLS,95930,100,97.0,20,8.0,Lead (Pb),0.0,Arsenic,0.0,Iron (Fe),0.0
70,400014,LAKE MADRONE WATER DISTRICT,BUTTE,BERRY CREEK,95916,297,123.0,3,3.0,Lead (Pb),0.0,Arsenic,0.0,Iron (Fe),0.0
71,400016,BERRY CREEK COMMUNITY SERVICE DIST,BUTTE,CHICO,95928,77,36.0,13,8.0,Lead (Pb),1.0,Arsenic,0.0,Iron (Fe),0.0
72,400019,OROVILLE MOBILE HOME PARK,BUTTE,MANHATTAN BEACH,90267,74,35.0,4,1.0,Lead (Pb),0.0,Arsenic,0.0,Iron (Fe),0.0
73,400020,PLEASANT GROVE MHP,BUTTE,TULELAKE,96134,327,88.0,5,1.0,Lead (Pb),0.0,Arsenic,0.0,Iron (Fe),0.0
74,400021,ROBINSON'S CORNER MHP,BUTTE,YUBA CITY,95993,20,22.0,12,0.0,Lead (Pb),0.0,Arsenic,0.0,Iron (Fe),0.0
75,400023,GOLDEN OAKS MOBILE ESTATES,BUTTE,FARMINGTON,95230,34,52.0,10,0.0,Lead (Pb),0.0,Arsenic,0.0,Iron (Fe),0.0
76,400026,MEADOWBROOK OAKS,BUTTE,PARADISE,95969,50,25.0,27,27.0,Lead (Pb),0.0,Arsenic,0.0,Iron (Fe),4.0
77,400027,FOOTHILL SOLAR COMPANY,BUTTE,BRIGHTON,2135,180,127.0,6,3.0,Lead (Pb),0.0,Arsenic,0.0,Iron (Fe),0.0
78,400028,BIG BEND MOBILE HOME PARK,BUTTE,GLADE HILL,24092,85,35.0,2,0.0,Lead (Pb),0.0,Arsenic,0.0,Iron (Fe),0.0
79,400030,GOLDEN FEATHER MHP,BUTTE,HILLSBOROUGH,94010,275,100.0,8,3.0,Lead (Pb),0.0,Arsenic,0.0,Iron (Fe),0.0
80,400036,MOUNTAIN VIEW MOBILE ACRES MHP LLC,BUTTE,SACRAMENTO,95814-4409,230,129.0,12,2.0,Lead (Pb),0.0,Arsenic,0.0,Iron (Fe),0.0
81,400040,ALMOND GROVE MOBILE PARK,BUTTE,CHICO,95928,250,175.0,11,1.0,Lead (Pb),0.0,Arsenic,0.0,Iron (Fe),0.0
82,400041,FOREST RANCH MOBILE PARK,BUTTE,OAKLEY,94561,25,16.0,6,1.0,Lead (Pb),0.0,Arsenic,0.0,Iron (Fe),0.0
83,400042,FOREST VILLAGE LLC,BUTTE,SHINGLE SPRINGS,95682,34,21.0,3,2.0,Lead (Pb),0.0,Arsenic,0.0,Iron (Fe),0.0
84,400045,COHASSET MOBILE ESTATES,BUTTE,PARADISE,95969,20,14.0,3,0.0,Lead (Pb),0.0,Arsenic,0.0,Iron (Fe),0.0
85,400046,PONDEROSA MOBILE ESTATES,BUTTE,PARDISE,95969,70,62.0,3,0.0,Lead (Pb),0.0,Arsenic,0.0,Iron (Fe),0.0
86,400048,SCOTTY 'S WATERFRONT GARDENS,BUTTE,CHICO,95973,25,12.0,3,0.0,Lead (Pb),0.0,Arsenic,0.0,Iron (Fe),0.0
87,400049,BUTTE CREEK MHP,BUTTE,CHICO,95928,100,33.0,79,59.0,Lead (Pb),0.0,Arsenic,3.0,Iron (Fe),9.0
88,400051,DINGERVILLE USA PARK,BUTTE,SOUIX FALLS,57816,447,80.0,8,2.0,Lead (Pb),0.0,Arsenic,0.0,Iron (Fe),0.0
89,400058,RANCHO VILLA MOBILE ACRES,BUTTE,GRIDLEY,95948,32,21.0,10,4.0,Lead (Pb),0.0,Arsenic,0.0,Iron (Fe),0.0
90,400060,HONCUT ELEMENTARY SCHOOL,BUTTE,PALERMO,95968,25,3.0,3,1.0,Lead (Pb),0.0,Arsenic,0.0,Iron (Fe),0.0
91,400062,RICHVALE ELEMENTARY SCHOOL,BUTTE,BIGGS,95974,63,4.0,4,0.0,Lead (Pb),0.0,Arsenic,0.0,Iron (Fe),0.0
92,400063,MANZANITA ELEMENTARY SCHOOL,BUTTE,GRIDLEY,95948,295,3.0,8,0.0,Lead (Pb),0.0,Arsenic,0.0,Iron (Fe),0.0
93,400064,CONCOW ELEMENTARY SCHOOL,BUTTE,OROVILLE,95965,115,11.0,2,0.0,Lead (Pb),0.0,Arsenic,0.0,Iron (Fe),0.0
94,400065,SPRING VALLEY SCHOOL,BUTTE,OROVILLE,95965,70,1.0,1,0.0,Lead (Pb),0.0,Arsenic,0.0,Iron (Fe),0.0
95,400066,DURHAM UNIFIED SCHOOL DISTRICT,BUTTE,DURHAM,95938,1200,18.0,12,1.0,Lead (Pb),0.0,Arsenic,0.0,Iron (Fe),0.0
96,400067,FEATHER RIVER SCHOOL,BUTTE,OROVILLE,95965,25,2.0,14,0.0,Lead (Pb),0.0,Arsenic,0.0,Iron (Fe),0.0
97,400068,BERRY CREEK SCHOOL,BUTTE,BERRY CREEK,95916,95,6.0,2,0.0,Lead (Pb),0.0,Arsenic,0.0,Iron (Fe),0.0
98,400070,BUTTE-GLENN COMMUNITY COLLEGE DIST,BUTTE,OROVILLE,95965,18000,35.0,6,0.0,Lead (Pb),0.0,Arsenic,0.0,Iron (Fe),0.0
99,400073,NORD COUNTRY SCHOOL,BUTTE,CHICO,95928,66,6.0,12,1.0,Lead (Pb),0.0,Arsenic,0.0,Iron (Fe),0.0
100,400078,FOREST KNOLLS MUTUAL WATER CO,BUTTE,FOREST RANCH,95942,46,21.0,1,1.0,Lead (Pb),0.0,Arsenic,0.0,Iron (Fe),0.0
101,400079,FOREST RANCH CHARTER SCHOOL,BUTTE,CHICO,95928,146,4.0,2,0.0,Lead (Pb),0.0,Arsenic,0.0,Iron (Fe),0.0
102,400081,FEATHER RIDGE ESTATES WATER CO,BUTTE,BERRY CREEK,95916,12,32.0,20,14.0,Lead (Pb),0.0,Arsenic,0.0,Iron (Fe),1.0
103,400090,MOUNTAIN VILLAGE HOMEOWNER'S ASSOC,BUTTE,FOREST RANCH,95942,40,17.0,1,1.0,Lead (Pb),0.0,Arsenic,0.0,Iron (Fe),0.0
104,400091,DEL ORO WATER COMPANY - BUZZTAIL DIST.,BUTTE,CHICO,95927,106,38.0,2,0.0,Lead (Pb),0.0,Arsenic,0.0,Iron (Fe),0.0
105,400093,BAMBI INN,BUTTE,BUTTE MEADOWS,95942,80,15.0,3,0.0,Lead (Pb),0.0,Arsenic,0.0,Iron (Fe),0.0
106,400094,OUTPOST THE,BUTTE,BUTTE MEADOWS,95942,263,15.0,3,0.0,Lead (Pb),0.0,Arsenic,0.0,Iron (Fe),0.0
107,400103,PG&E: PHILBROOK DAM,BUTTE,CHICO,95928,40,4.0,2,0.0,Lead (Pb),0.0,Arsenic,0.0,Iron (Fe),0.0
108,400105,GRAY LODGE CHECK STATION,BUTTE,GRIDLEY,95948,8000,7.0,1,0.0,Lead (Pb),0.0,Arsenic,0.0,Iron (Fe),0.0
109,400106,RIVER ONE RV PARK,BUTTE,OROVILLE,95965,26,28.0,3,0.0,Lead (Pb),0.0,Arsenic,0.0,Iron (Fe),0.0
110,400107,FEATHER FALLS SCHOOL,BUTTE,OROVILLE,95966,50,1.0,3,0.0,Lead (Pb),0.0,Arsenic,0.0,Iron (Fe),0.0
111,400111,RIVER REFLECTIONS RV & CAMPGROUND,BUTTE,OROVILLE,95965,125,94.0,2,0.0,Lead (Pb),0.0,Arsenic,0.0,Iron (Fe),0.0
112,400117,FALLING ROCK RV PARK,BUTTE,OROVILLE,95965,52,22.0,2,0.0,Lead (Pb),0.0,Arsenic,0.0,Iron (Fe),0.0
113,400120,BIDWELL PARK GOLF COURSE,BUTTE,CHICO,95973,325,6.0,2,0.0,Lead (Pb),0.0,Arsenic,0.0,Iron (Fe),0.0
114,400123,HUMBOLDT HIGHLANDS MUTUAL,BUTTE,FOREST RANCH,95942,50,24.0,1,1.0,Lead (Pb),0.0,Arsenic,0.0,Iron (Fe),0.0
115,400132,WILD GOOSE DUCK CLUB,BUTTE,LIVE OAK,95953,50,22.0,1,0.0,Lead (Pb),0.0,Arsenic,0.0,Iron (Fe),0.0
116,400133,LUNDBERG RICE PRODUCTS,BUTTE,RICHVALE,95974,240,8.0,8,0.0,Lead (Pb),0.0,Arsenic,0.0,Iron (Fe),0.0
117,400137,SFWP - SLY CREEK CAMPGROUND,BUTTE,OROVILLE,95966,85,6.0,1,1.0,Lead (Pb),0.0,Arsenic,0.0,Iron (Fe),0.0
118,400138,SFWP - STRAWBERRY CAMPROUND,BUTTE,OROVILLE,95966,75,2.0,4,4.0,Lead (Pb),0.0,Arsenic,0.0,Iron (Fe),0.0
119,400142,BOY SCOUTS OF AMERICA-CAMP LASSEN,BUTTE,CHICO,95926,150,6.0,2,1.0,Lead (Pb),0.0,Arsenic,0.0,Iron (Fe),0.0
120,400143,BUTTE MEADOWS CAMP,BUTTE,CHESTER,96020,30,30.0,9,6.0,Lead (Pb),0.0,Arsenic,0.0,Iron (Fe),0.0
121,400149,HUMBOLDT WOODLANDS MUTUAL,BUTTE,CHICO,95928,75,32.0,3,1.0,Lead (Pb),0.0,Arsenic,0.0,Iron (Fe),0.0
122,400151,KEEFER CREEK ESTATES,BUTTE,CHICO,95973,160,55.0,6,0.0,Lead (Pb),0.0,Arsenic,0.0,Iron (Fe),0.0
123,400154,SMUCKER NATURAL FOODS,BUTTE,CHICO,95927,85,2.0,4,0.0,Lead (Pb),0.0,Arsenic,0.0,Iron (Fe),0.0
124,400155,BIGGERS GLEN MUTUAL WATER CO,BUTTE,BUTTE MEADOWS,95942,25,29.0,4,2.0,Lead (Pb),0.0,Arsenic,0.0,Iron (Fe),0.0
125,400160,CHICO ROD & GUN CLUB,BUTTE,CHICO,95927,25,3.0,2,0.0,Lead (Pb),0.0,Arsenic,0.0,Iron (Fe),0.0
126,400161,COHASSET INDUSTRIAL PARK,BUTTE,CHICO,95928,47,22.0,3,0.0,Lead (Pb),0.0,Arsenic,0.0,Iron (Fe),0.0
127,400162,PLEASANT VALLEY BAPTIST CHURCH,BUTTE,CHICO,95973,600,3.0,6,0.0,Lead (Pb),0.0,Arsenic,0.0,Iron (Fe),0.0
128,400166,CHICO EASTSIDE LITTLE LEAGUE,BUTTE,CHICO,95928,500,4.0,2,0.0,Lead (Pb),0.0,Arsenic,0.0,Iron (Fe),0.0
129,400169,GRIDLEY GRILL,BUTTE,LINCOLN,95648,750,1.0,9,0.0,Lead (Pb),0.0,Arsenic,0.0,Iron (Fe),0.0
130,405001,DEL ORO WATER CO.-LIME SADDLE MARINA,BUTTE,CHICO,95927,1106,382.0,29,10.0,Lead (Pb),0.0,Arsenic,0.0,Iron (Fe),0.0
131,405003,SILVER DOLLAR FAIRGROUNDS,BUTTE,CHICO,95928,182,1.0,3,0.0,Lead (Pb),0.0,Arsenic,0.0,Iron (Fe),0.0
132,409181,BLUE OAK TERRACE MUTUAL,BUTTE,NELSON,95958,50,23.0,2,2.0,Lead (Pb),0.0,Arsenic,0.0,Iron (Fe),0.0
133,409182,TUSCAN RIDGE,BUTTE,PARADISE,95967,1917,1.0,5,2.0,Lead (Pb),0.0,Arsenic,0.0,Iron (Fe),0.0
134,409183,SIERRA MOON WATER COMPANY,BUTTE,CHICO,95927,120,66.0,1,0.0,Lead (Pb),0.0,Arsenic,0.0,Iron (Fe),0.0
135,410001,CITY OF BIGGS,BUTTE,BIGGS,95917,1805,715.0,24,8.0,Lead (Pb),0.0,Arsenic,0.0,Iron (Fe),0.0
136,410003,DURHAM IRRIGATION DISTRICT,BUTTE,DURHAM,95938,1561,472.0,24,6.0,Lead (Pb),0.0,Arsenic,0.0,Iron (Fe),0.0
137,410004,CITY OF GRIDLEY,BUTTE,GRIDLEY,95948,6608,2205.0,98,20.0,Lead (Pb),0.0,Arsenic,0.0,Iron (Fe),0.0
138,410007,PARADISE IRRIGATION DISTRICT,BUTTE,PARADISE,95969,26218,10498.0,5,3.0,Lead (Pb),0.0,Arsenic,0.0,Iron (Fe),0.0
139,410008,0410008-THERMALITO WATER & SEWER DIST,BUTTE,OROVILLE,95965,9771,2961.0,23,6.0,Lead (Pb),0.0,Arsenic,0.0,Iron (Fe),0.0
140,410009,DEL ORO WATER CO.-MAGALIA,BUTTE,CHICO,95927,924,273.0,16,4.0,Lead (Pb),0.0,Arsenic,0.0,Iron (Fe),0.0
141,410011,DEL ORO WATER CO.-PARADISE PINES,BUTTE,CHICO,95927,9808,4697.0,16,3.0,Lead (Pb),0.0,Arsenic,0.0,Iron (Fe),0.0
142,410012,SFWP-BANGOR,BUTTE,OROVILLE,95966,73,18.0,1,1.0,Lead (Pb),0.0,Arsenic,0.0,Iron (Fe),0.0
143,410018,DEL ORO WATER CO.-STIRLING BLUFFS,BUTTE,CHICO,95927,548,154.0,2,1.0,Lead (Pb),0.0,Arsenic,0.0,Iron (Fe),0.0
144,500003,U.S. ARMY CORP NEW HOGAN,CALAVERAS,VALLEY SPRINGS,95252,1860,2.0,4,0.0,Lead (Pb),0.0,Arsenic,0.0,Iron (Fe),0.0
145,500007,DREAM MOUNTAIN CHRISTIAN CAMP INC.,CALAVERAS,MURPHYS,95247,50,8.0,1,0.0,Lead (Pb),0.0,Arsenic,0.0,Iron (Fe),0.0
146,500019,MINERAL MOUNTAIN MUTUAL WATER,CALAVERAS,MUPHYS,95247,125,38.0,21,21.0,Lead (Pb),0.0,Arsenic,0.0,Iron (Fe),3.0
147,500026,CAMP LODESTAR,CALAVERAS,WILSEYVILLE,95257,150,15.0,6,0.0,Lead (Pb),0.0,Arsenic,0.0,Iron (Fe),0.0
148,500027,LILI VALLEY WATER CO.,CALAVERAS,BENICIA,94510,99,70.0,8,6.0,Lead (Pb),0.0,Arsenic,0.0,Iron (Fe),0.0
149,500032,NEW MELONES LAKE MARINA,CALAVERAS,ANGELS CAMP,95222,100,2.0,2,0.0,Lead (Pb),0.0,Arsenic,0.0,Iron (Fe),0.0
150,500057,CALIFORNIA CAVERNS,CALAVERAS,VALLECITO,95251,80,1.0,1,0.0,Lead (Pb),0.0,Arsenic,0.0,Iron (Fe),0.0
151,500068,DUNROVIN MOBILE HOME VILLAGE,CALAVERAS,SAN FRANCISCO,94107,99,42.0,5,1.0,Lead (Pb),0.0,Arsenic,0.0,Iron (Fe),0.0
152,500069,EL TORERO RESTAURANT,CALAVERAS,BURSON,95225,225,1.0,4,1.0,Lead (Pb),0.0,Arsenic,0.0,Iron (Fe),0.0
153,500075,LAKESIDE MOBILE ESTATES,CALAVERAS,RAIL ROAD FLAT,95248,54,24.0,5,3.0,Lead (Pb),0.0,Arsenic,0.0,Iron (Fe),0.0
154,500082,ANGELS CAMP RV/CAMPING RESORT,CALAVERAS,ANGELS CAMP,95222,228,76.0,2,0.0,Lead (Pb),0.0,Arsenic,0.0,Iron (Fe),0.0
155,500085,TOYON MIDDLE SCHOOL,CALAVERAS,SAN ANDREAS,95249,200,6.0,3,0.0,Lead (Pb),0.0,Arsenic,0.0,Iron (Fe),0.0
156,500090,AMERICAN LEGION POST #376,CALAVERAS,WEST POINT,95255,120,1.0,1,0.0,Lead (Pb),0.0,Arsenic,0.0,Iron (Fe),0.0
157,500091,RITE OF PASSAGE/SIERRA RIDGE,CALAVERAS,SAN ANDREAS,95249,150,13.0,20,15.0,Lead (Pb),0.0,Arsenic,0.0,Iron (Fe),0.0
158,500095,FOOTHILL COMMUNITY CHURCH,CALAVERAS,ALTAVILLE,95221,85,2.0,2,2.0,Lead (Pb),0.0,Arsenic,0.0,Iron (Fe),0.0
159,500098,CALAVERAS COUNTY AIRPORT,CALAVERAS,SAN ANDREAS,95249,25,1.0,3,0.0,Lead (Pb),0.0,Arsenic,0.0,Iron (Fe),0.0
160,500099,CHANGING ECHOES,CALAVERAS,ANGELS CAMP,95222,25,1.0,4,0.0,Lead (Pb),0.0,Arsenic,0.0,Iron (Fe),0.0
161,510001,UNION PUBLIC UTILITY DISTRICT,CALAVERAS,MURPHYS,95247,4300,1660.0,17,9.0,Lead (Pb),0.0,Arsenic,0.0,Iron (Fe),0.0
162,510003,"ANGELS, CITY OF",CALAVERAS,ANGELS CAMP,95222,3836,1835.0,25,16.0,Lead (Pb),0.0,Arsenic,0.0,Iron (Fe),0.0
163,510004,CCWD - SHEEP RANCH,CALAVERAS,SAN ANDREAS,95249,134,55.0,24,18.0,Lead (Pb),0.0,Arsenic,0.0,Iron (Fe),0.0
164,510005,CCWD - WEST POINT,CALAVERAS,SAN ANDREAS,95249,988,574.0,37,26.0,Lead (Pb),0.0,Arsenic,0.0,Iron (Fe),0.0
165,510006,CCWD - JENNY LIND,CALAVERAS,SAN ANDREAS,95249,9592,3800.0,27,19.0,Lead (Pb),0.0,Arsenic,0.0,Iron (Fe),0.0
166,510009,BLUE LAKE SPRINGS MUT WTR,CALAVERAS,ARNOLD,95223,4000,6.0,52,30.0,Lead (Pb),0.0,Arsenic,0.0,Iron (Fe),5.0
167,510010,VALLEY SPRINGS PUD,CALAVERAS,VALLEY SPRINGS,95252,900,262.0,32,12.0,Lead (Pb),0.0,Arsenic,0.0,Iron (Fe),0.0
168,510012,CAMANCHE SOUTH SHORE-EBMUD,CALAVERAS,VALLEY SPRINGS,95252,180,448.0,9,9.0,Lead (Pb),0.0,Arsenic,0.0,Iron (Fe),0.0
169,510016,CCWD - EBBETTS PASS,CALAVERAS,SAN ANDREAS,95249,12484,6013.0,34,25.0,Lead (Pb),0.0,Arsenic,0.0,Iron (Fe),0.0
170,510017,CCWD - COPPER COVE,CALAVERAS,SAN ANDREAS,95249,4416,2595.0,22,16.0,Lead (Pb),0.0,Arsenic,0.0,Iron (Fe),0.0
171,510019,CCWD - WALLACE,CALAVERAS,SAN ANDREAS,95249,340,106.0,122,92.0,Lead (Pb),0.0,Arsenic,0.0,Iron (Fe),10.0
172,600005,COLUSA CO. SERVICE AREA #2-STONYFORD,COLUSA,PASKENTA,96074,250,63.0,30,10.0,Lead (Pb),0.0,Arsenic,0.0,Iron (Fe),0.0
173,600008,COLUSA CO. WWD #1 - GRIMES,COLUSA,GRIMES,95950,381,123.0,25,25.0,Lead (Pb),0.0,Arsenic,4.0,Iron (Fe),0.0
174,600012,COLUSA CO. SERVICE AREA #1-CENTURY RANCH,COLUSA,PASKENTA,96074,246,88.0,11,5.0,Lead (Pb),0.0,Arsenic,0.0,Iron (Fe),0.0
175,600013,COLUSA CO. WWD #2 - PRINCETON,COLUSA,PRINCETON,95970,356,120.0,60,2.0,Lead (Pb),0.0,Arsenic,0.0,Iron (Fe),0.0
176,600016,WILBUR HOT SPRINGS,COLUSA,WILLIAMS,95987,76,12.0,8,2.0,Lead (Pb),0.0,Arsenic,0.0,Iron (Fe),0.0
177,600042,ARBUCKLE GOLF CLUB,COLUSA,ARBUCKLE,95912,126,3.0,2,0.0,Lead (Pb),0.0,Arsenic,0.0,Iron (Fe),0.0
178,600050,CALTRANS-MAXWELL RESTSTOPS,COLUSA,WILLOWS,95988,15000,2.0,3,0.0,Lead (Pb),0.0,Arsenic,0.0,Iron (Fe),0.0
179,600061,OLAM SPICES AND VEGETABLE INGREDIENTS,COLUSA,WILLIAMS,95987,120,2.0,29,13.0,Lead (Pb),0.0,Arsenic,0.0,Iron (Fe),0.0
180,605002,MORNING STAR PKG. CO.-WMS.,COLUSA,WILLIAMS,95987,390,4.0,23,11.0,Lead (Pb),0.0,Arsenic,0.0,Iron (Fe),0.0
181,605006,RICHMOND HUNTING CLUB-MAXWELL,COLUSA,MAXWELL,95955,95,1.0,3,0.0,Lead (Pb),0.0,Arsenic,0.0,Iron (Fe),0.0
182,605011,DEL ORO WC - ARBUCKLE DISTRICT,COLUSA,CHICO,95927,185,56.0,14,4.0,Lead (Pb),0.0,Arsenic,0.0,Iron (Fe),0.0
183,610001,ARBUCKLE PUBLIC UTILITY DISTRICT,COLUSA,ARBUCKLE,95912,2778,1002.0,32,5.0,Lead (Pb),0.0,Arsenic,0.0,Iron (Fe),0.0
184,610002,CITY OF COLUSA,COLUSA,COLUSA,95932,6235,2197.0,103,31.0,Lead (Pb),0.0,Arsenic,0.0,Iron (Fe),4.0
185,610003,MAXWELL PUBLIC UTILITY DISTRICT,COLUSA,MAXWELL,95955,1317,396.0,26,6.0,Lead (Pb),0.0,Arsenic,0.0,Iron (Fe),0.0
186,610004,CITY OF WILLIAMS,COLUSA,WILLIAMS,95987,5255,1487.0,12,4.0,Lead (Pb),0.0,Arsenic,0.0,Iron (Fe),0.0
187,701706,LOS VAQUEROS MARINA BLDG,CONTRA COSTA,CONCORD,94524,50,2.0,14,10.0,Lead (Pb),0.0,Arsenic,0.0,Iron (Fe),0.0
188,701707,LOS VAQUEROS INTERPRETIVE CENTER,CONTRA COSTA,CONCORD,94524,100,1.0,16,9.0,Lead (Pb),0.0,Arsenic,0.0,Iron (Fe),0.0
189,706004,OAKLEY MUTUAL WATER COMPANY,CONTRA COSTA,OAKELY,94561,170,49.0,6,6.0,Lead (Pb),0.0,Arsenic,0.0,Iron (Fe),0.0
190,706005,FARRAR PARK PROPERTY OWNERS,CONTRA COSTA,BETHEL ISLAND,94511,140,56.0,3,1.0,Lead (Pb),0.0,Arsenic,0.0,Iron (Fe),0.0
191,706022,BYRON UNITED METHODIST,CONTRA COSTA,BYRON,94514,50,1.0,2,0.0,Lead (Pb),0.0,Arsenic,0.0,Iron (Fe),0.0
192,706027,ORIN ALLEN YOUTH REHAB FACILITY,CONTRA COSTA,BYRON,94514,300,3.0,7,3.0,Lead (Pb),0.0,Arsenic,0.0,Iron (Fe),0.0
193,706028,KNIGHTSEN ELEMENTARY SCHOOL,CONTRA COSTA,KNIGHTSEN,94548,350,3.0,19,16.0,Lead (Pb),0.0,Arsenic,0.0,Iron (Fe),0.0
194,706032,BETHEL MISSIONARY BAPTIST,CONTRA COSTA,OAKLEY,94561,50,1.0,2,0.0,Lead (Pb),0.0,Arsenic,0.0,Iron (Fe),0.0
195,706049,ALOHA CLUB,CONTRA COSTA,OAKLAND,94612,60,1.0,3,2.0,Lead (Pb),0.0,Arsenic,0.0,Iron (Fe),0.0
196,706102,BAY STANDARDS,CONTRA COSTA,BRENTWOOD,94513,35,2.0,6,1.0,Lead (Pb),0.0,Arsenic,0.0,Iron (Fe),0.0
197,706108,LONE TREE MEDICAL & DENTAL,CONTRA COSTA,BRENTWOOD,94513,45,2.0,33,1.0,Lead (Pb),0.0,Arsenic,0.0,Iron (Fe),0.0
198,707501,ANGLER S RANCH #3,CONTRA COSTA,BETHEL ISLAND,94511,60,30.0,2,1.0,Lead (Pb),0.0,Arsenic,0.0,Iron (Fe),0.0
199,707502,EBRPD BLACK DIAMOND MINES,CONTRA COSTA,OAKLAND,94605-0381,45,3.0,3,0.0,Lead (Pb),0.0,Arsenic,0.0,Iron (Fe),0.0
200,707507,WILLOW PARK MARINA,CONTRA COSTA,OAKLEY,94561,380,125.0,12,9.0,Lead (Pb),0.0,Arsenic,2.0,Iron (Fe),0.0
201,707511,CASTLEROCK WATER SYS,CONTRA COSTA,WALNUT CREEK,94598,22,8.0,2,0.0,Lead (Pb),0.0,Arsenic,0.0,Iron (Fe),0.0
202,707517,COLONIA SANTA MARIA,CONTRA COSTA,BRENTWOOD,94513,32,10.0,3,0.0,Lead (Pb),0.0,Arsenic,0.0,Iron (Fe),0.0
203,707519,DUTCH SLOUGH WATER WORKS,CONTRA COSTA,BRENTWOOD,94513,49,18.0,5,2.0,Lead (Pb),0.0,Arsenic,0.0,Iron (Fe),0.0
204,707521,BYRON CORNERS INC,CONTRA COSTA,BYRON,94514,90,2.0,11,0.0,Lead (Pb),0.0,Arsenic,0.0,Iron (Fe),0.0
205,707523,FLAMINGO MOBILE MANOR,CONTRA COSTA,BETHEL ISLAND,94511,200,62.0,3,1.0,Lead (Pb),0.0,Arsenic,0.0,Iron (Fe),0.0
206,707532,MCAVOY YACHT HARBOR,CONTRA COSTA,BYRON,94514,55,4.0,2,0.0,Lead (Pb),0.0,Arsenic,0.0,Iron (Fe),0.0
207,707543,BRENTWOOD MISSIONARY BAPTIST,CONTRA COSTA,BRENTWOOD,94513,25,1.0,3,0.0,Lead (Pb),0.0,Arsenic,0.0,Iron (Fe),0.0
208,707545,ORWOOD RESORT,CONTRA COSTA,BRENTWOOD,94513,350,70.0,2,1.0,Lead (Pb),0.0,Arsenic,0.0,Iron (Fe),0.0
209,707547,KNIGHTSEN COMMUNITY WATER SYSTEM,CONTRA COSTA,OAKLEY,94561,250,18.0,6,3.0,Lead (Pb),0.0,Arsenic,0.0,Iron (Fe),0.0
210,707553,RIVERVIEW MOBILE HOMES,CONTRA COSTA,STOCKTON,95201,216,72.0,12,1.0,Lead (Pb),0.0,Arsenic,0.0,Iron (Fe),0.0
211,707556,SANDMOUND MUTUAL,CONTRA COSTA,BETHEL ISLAND,94511,160,65.0,5,3.0,Lead (Pb),0.0,Arsenic,1.0,Iron (Fe),0.0
212,707558,HERTZ WATER SYSTEM,CONTRA COSTA,OAKLEY,94561,35,16.0,3,1.0,Lead (Pb),0.0,Arsenic,0.0,Iron (Fe),0.0
213,707562,VALLEY ORCHARD  MUTUAL WATER SYSTEM,CONTRA COSTA,WALNUT CREEK,94591,24,10.0,1,0.0,Lead (Pb),0.0,Arsenic,0.0,Iron (Fe),0.0
214,707568,MACS OLD HOUSE,CONTRA COSTA,MORAGA,94570,90,1.0,13,2.0,Lead (Pb),0.0,Arsenic,0.0,Iron (Fe),0.0
215,707569,ANGLERS SUBDIVISION 4,CONTRA COSTA,BETHEL ISLAND,94511,210,99.0,23,9.0,Lead (Pb),0.0,Arsenic,0.0,Iron (Fe),0.0
216,707570,BRIDGEHEAD CAFE,CONTRA COSTA,ANTIOCH,94509,80,2.0,11,0.0,Lead (Pb),0.0,Arsenic,0.0,Iron (Fe),0.0
217,707572,BETHEL ISLAND MUTUAL WATER CO,CONTRA COSTA,BETHEL ISLAND,94511,149,45.0,4,2.0,Lead (Pb),0.0,Arsenic,0.0,Iron (Fe),0.0
218,707573,DELTA MUTUAL WATER COMPANY,CONTRA COSTA,OAKLEY,94561,225,106.0,53,18.0,Lead (Pb),0.0,Arsenic,6.0,Iron (Fe),0.0
219,707574,SANTIAGO ISLAND VILLAGE,CONTRA COSTA,SANTA ANA,92711-1927,400,211.0,2,2.0,Lead (Pb),0.0,Arsenic,0.0,Iron (Fe),0.0
220,707575,FRANKS MARINA,CONTRA COSTA,BETHEL ISLAND,94511,185,66.0,2,2.0,Lead (Pb),0.0,Arsenic,0.0,Iron (Fe),0.0
221,707576,PLEASANTIMES MUTUAL WATER CO,CONTRA COSTA,BETHEL ISLAND,94511,380,190.0,17,9.0,Lead (Pb),0.0,Arsenic,0.0,Iron (Fe),0.0
222,707585,MORAGA HEIGHTS MUTUAL WATER,CONTRA COSTA,CANYON,94516,60,22.0,2,2.0,Lead (Pb),0.0,Arsenic,0.0,Iron (Fe),0.0
223,707588,BIG OAK MOBILE HOME PARK WATER,CONTRA COSTA,OAKLEY,94561,156,65.0,4,2.0,Lead (Pb),0.0,Arsenic,0.0,Iron (Fe),0.0
224,707589,BELLA VISTA WATER SYS,CONTRA COSTA,MORAGA,94556,93,33.0,6,4.0,Lead (Pb),0.0,Arsenic,0.0,Iron (Fe),0.0
225,707594,CASA MEDANOS WATER SYSTEM,CONTRA COSTA,PITTSBURG,94565,45,16.0,7,2.0,Lead (Pb),0.0,Arsenic,0.0,Iron (Fe),0.0
226,707595,BYRON INN,CONTRA COSTA,BYRON,94514,60,1.0,3,0.0,Lead (Pb),0.0,Arsenic,0.0,Iron (Fe),0.0
227,707597,SANDY POINT MOBILE HOME PARK,CONTRA COSTA,BRENTWOOD,94513,94,24.0,4,2.0,Lead (Pb),0.0,Arsenic,0.0,Iron (Fe),0.0
228,707598,CAMINO MOBILEHOME,CONTRA COSTA,OAKLEY,94561,210,75.0,2,1.0,Lead (Pb),0.0,Arsenic,0.0,Iron (Fe),0.0
229,707601,RUSSOS MOBILE PARK,CONTRA COSTA,BETHEL ISLAND,94511,110,20.0,1,1.0,Lead (Pb),0.0,Arsenic,0.0,Iron (Fe),0.0
230,707602,BEACON WEST,CONTRA COSTA,OAKLEY,94561,45,17.0,5,5.0,Lead (Pb),0.0,Arsenic,1.0,Iron (Fe),0.0
231,707608,MARINA MOBILE MANOR,CONTRA COSTA,FREMONT,94539,75,24.0,7,3.0,Lead (Pb),0.0,Arsenic,0.0,Iron (Fe),0.0
232,707613,WILLOW MOBILE HOME PARK,CONTRA COSTA,MARTINEZ,94553,350,173.0,3,2.0,Lead (Pb),0.0,Arsenic,0.0,Iron (Fe),0.0
233,707615,DOUBLETREE RANCH WATER SYSTEM,CONTRA COSTA,LIVERMORE,94551,49,18.0,36,36.0,Lead (Pb),0.0,Arsenic,7.0,Iron (Fe),0.0
234,707617,WILDWOOD ACRES RESORT,CONTRA COSTA,LAFAYETTE,94549,90,1.0,2,0.0,Lead (Pb),0.0,Arsenic,0.0,Iron (Fe),0.0
235,707620,CANYON SCHOOL,CONTRA COSTA,CANYON,94516,200,2.0,4,2.0,Lead (Pb),0.0,Arsenic,0.0,Iron (Fe),0.0
236,707623,WILCOX STATION RANCH,CONTRA COSTA,CANYON,94516,90,22.0,2,2.0,Lead (Pb),0.0,Arsenic,0.0,Iron (Fe),0.0
237,710001,CITY OF ANTIOCH,CONTRA COSTA,ANTIOCH,94531-5007,113061,31810.0,163,120.0,Lead (Pb),0.0,Arsenic,0.0,Iron (Fe),3.0
238,710002,GOLDEN STATE WATER COMPANY - BAY POINT,CONTRA COSTA,RANCHO CORDOVA,95670-6129,22295,5030.0,64,37.0,Lead (Pb),0.0,Arsenic,0.0,Iron (Fe),0.0
239,710004,BRENTWOOD,CONTRA COSTA,BRENTWOOD,94513-7344,61383,19540.0,202,100.0,Lead (Pb),0.0,Arsenic,0.0,Iron (Fe),0.0
240,710006,CITY OF MARTINEZ,CONTRA COSTA,MARTINEZ,94553-2337,35375,9944.0,90,53.0,Lead (Pb),0.0,Arsenic,0.0,Iron (Fe),0.0
241,710007,DIABLO WATER DISTRICT,CONTRA COSTA,OAKLEY,94561-0127,40144,11700.0,211,161.0,Lead (Pb),0.0,Arsenic,0.0,Iron (Fe),0.0
242,710008,CITY OF PITTSBURG,CONTRA COSTA,PITTSBURG,94565-2628,62500,18777.0,174,84.0,Lead (Pb),0.0,Arsenic,0.0,Iron (Fe),0.0
243,710009,TOWN OF DISCOVERY BAY,CONTRA COSTA,DISCOVERY BAY,94505-9376,15000,55.0,52,13.0,Lead (Pb),0.0,Arsenic,0.0,Iron (Fe),0.0
244,710010,RANDALL-BOLD WATER TREATMENT PLANT,CONTRA COSTA,CONCORD,94520-4907,1,3.0,146,111.0,Lead (Pb),0.0,Arsenic,0.0,Iron (Fe),0.0
245,710011,CCWD/BRENTWOOD WTP,CONTRA COSTA,CONCORD,94520-4907,1,1.0,121,95.0,Lead (Pb),0.0,Arsenic,0.0,Iron (Fe),0.0
246,710800,DWR DELTA FIELD DIVISION - BANKS PP,CONTRA COSTA,BYRON,94514-1917,180,1.0,1,0.0,Lead (Pb),0.0,Arsenic,0.0,Iron (Fe),0.0
247,800526,REDWOOD PARK C.S.D.,DEL NORTE,KLAMATH,95548,200,44.0,4,1.0,Lead (Pb),0.0,Arsenic,0.0,Iron (Fe),0.0
248,800532,BIG ROCK C.S.D.,DEL NORTE,CRESCENT CITY,95531,400,107.0,1,1.0,Lead (Pb),0.0,Arsenic,0.0,Iron (Fe),0.0
249,800548,KLAMATH C.S.D.,DEL NORTE,KLAMATH,95548,100,60.0,9,5.0,Lead (Pb),0.0,Arsenic,0.0,Iron (Fe),0.0
250,800552,NORTHCREST TRAILER CITY,DEL NORTE,RENO,89523,250,89.0,2,1.0,Lead (Pb),0.0,Arsenic,0.0,Iron (Fe),0.0
251,800555,GASQUET C.S.D.,DEL NORTE,GASQUET,95543,775,210.0,2,2.0,Lead (Pb),0.0,Arsenic,0.0,Iron (Fe),0.0
252,800556,HRC C.S.D.,DEL NORTE,CRESCENT CITY,95531,150,41.0,2,1.0,Lead (Pb),0.0,Arsenic,0.0,Iron (Fe),0.0
253,800603,BUTTE COURT MOBILE HOME PARK,DEL NORTE,KLAMATH,95548,67,23.0,3,1.0,Lead (Pb),0.0,Arsenic,0.0,Iron (Fe),0.0
254,800605,WEST PARK PROPERTIES,DEL NORTE,CRESCENT CITY,95531,112,42.0,10,2.0,Lead (Pb),0.0,Arsenic,0.0,Iron (Fe),0.0
255,800613,CRIVELLI'S WATER SYSTEM,DEL NORTE,KLAMATH,95548,100,1.0,1,0.0,Lead (Pb),0.0,Arsenic,0.0,Iron (Fe),0.0
256,800622,CHINOOK WATER SYSTEM,DEL NORTE,KLAMATH,95548,100,1.0,1,0.0,Lead (Pb),0.0,Arsenic,0.0,Iron (Fe),0.0
257,800627,GOLDEN BEAR RV PARK,DEL NORTE,SAN JOSE,95112,153,78.0,2,0.0,Lead (Pb),0.0,Arsenic,0.0,Iron (Fe),0.0
258,800632,KLAMATH RIVER RV PARK,DEL NORTE,KLAMATH,95548,50,1.0,3,0.0,Lead (Pb),0.0,Arsenic,0.0,Iron (Fe),0.0
259,800647,REDWOOD MAINT. & OPER.,DEL NORTE,KLAMATH,95548,421,1.0,2,0.0,Lead (Pb),0.0,Arsenic,0.0,Iron (Fe),0.0
260,800649,MARGARET KEATING MAIN. & OPER.,DEL NORTE,KLAMATH,95548,135,1.0,2,0.0,Lead (Pb),0.0,Arsenic,0.0,Iron (Fe),0.0
261,800652,SHANGRI-LA TRAILER COURT,DEL NORTE,CRESCENT CITY,95531,170,81.0,1,0.0,Lead (Pb),0.0,Arsenic,0.0,Iron (Fe),0.0
262,800661,CALTRANS-COLLIER TUNNEL RS,DEL NORTE,EUREKA,95501,50,1.0,1,1.0,Lead (Pb),0.0,Arsenic,0.0,Iron (Fe),0.0
263,800700,LAS PALMAS MOBILE HOME PARK,DEL NORTE,EUREKA,95501,120,84.0,8,2.0,Lead (Pb),0.0,Arsenic,0.0,Iron (Fe),0.0
264,800800,PINE GROVE TRAILER PARK,DEL NORTE,RENO,89523,100,51.0,2,1.0,Lead (Pb),0.0,Arsenic,0.0,Iron (Fe),0.0
265,800861,RESERVATION RANCH,DEL NORTE,SMITH RIVER,95567,50,21.0,8,5.0,Lead (Pb),0.0,Arsenic,0.0,Iron (Fe),0.0
266,810001,CITY OF CRESCENT CITY,DEL NORTE,CRESCENT CITY,95531,14000,3416.0,5,5.0,Lead (Pb),0.0,Arsenic,0.0,Iron (Fe),0.0
267,810002,SMITH RIVER C.S.D.,DEL NORTE,SMITH RIVER,95567,2568,582.0,2,0.0,Lead (Pb),0.0,Arsenic,0.0,Iron (Fe),0.0
268,810303,JEDEDIAH SMITH STATE PARK,DEL NORTE,CRESCENT CITY,95531,2202,1.0,1,0.0,Lead (Pb),0.0,Arsenic,0.0,Iron (Fe),0.0
269,810800,CALFIRE-ALDER CONSERVATION CAMP,DEL NORTE,KLAMATH,95548,135,1.0,4,1.0,Lead (Pb),0.0,Arsenic,0.0,Iron (Fe),0.0
270,900102,GOLD BEACH PARK,EL DORADO,EL DORADO,95623,100,40.0,39,32.0,Lead (Pb),0.0,Arsenic,4.0,Iron (Fe),0.0
271,900104,PIONEER BIBLE CHURCH,EL DORADO,SOMERSET,95684,250,1.0,2,0.0,Lead (Pb),0.0,Arsenic,0.0,Iron (Fe),0.0
272,900106,INDIAN DIGGINGS SCHOOL,EL DORADO,SOMERSET,95684,17,1.0,2,0.0,Lead (Pb),0.0,Arsenic,0.0,Iron (Fe),0.0
273,900107,GRAY'S MART & GAS (HEALTH),EL DORADO,SOMERSET,95684,100,3.0,1,0.0,Lead (Pb),0.0,Arsenic,0.0,Iron (Fe),0.0
274,900112,CANDLELIGHT VILLAGE MUTUAL WATER CO.,EL DORADO,SOMERSET,95684,32,2.0,4,4.0,Lead (Pb),0.0,Arsenic,0.0,Iron (Fe),0.0
275,900210,MILLERS HILL SCHOOL,EL DORADO,SHINGLE SPRINGS,95682,120,7.0,37,6.0,Lead (Pb),0.0,Arsenic,0.0,Iron (Fe),0.0
276,900219,ALL OUTDOORS ADVENTURE TRIPS,EL DORADO,LOTUS,95651,100,4.0,4,0.0,Lead (Pb),0.0,Arsenic,0.0,Iron (Fe),0.0
277,900300,KYBURZ MUTUAL WATER SYSTEM,EL DORADO,KYBURZ,95720,150,120.0,6,5.0,Lead (Pb),0.0,Arsenic,0.0,Iron (Fe),1.0
278,900304,SILVERFORK SCHOOL (HEALTH),EL DORADO,POLLOCK PINES,95726,25,1.0,2,2.0,Lead (Pb),0.0,Arsenic,0.0,Iron (Fe),0.0
279,900308,QUINTETTE SERVICE CORP WATER,EL DORADO,GEORGETOWN,95634,79,52.0,1,0.0,Lead (Pb),0.0,Arsenic,0.0,Iron (Fe),0.0
280,900401,CAMP FLEMING  --- CAMPGROUND,EL DORADO,SACRAMENTO,95819,240,1.0,1,0.0,Lead (Pb),0.0,Arsenic,0.0,Iron (Fe),0.0
281,900404,"OAKLANE MOBILE VILLAGE, LLC.",EL DORADO,SHINGLE SPRINGS,95682,75,35.0,5,2.0,Lead (Pb),0.0,Arsenic,0.0,Iron (Fe),0.0
282,900410,LATROBE ELEMENTARY SCHOOL,EL DORADO,SHINGLE SPRINGS,95682,65,2.0,6,2.0,Lead (Pb),0.0,Arsenic,0.0,Iron (Fe),0.0
283,900411,LOTUS PUB,EL DORADO,LOTUS,95651,500,7.0,2,0.0,Lead (Pb),0.0,Arsenic,0.0,Iron (Fe),0.0
284,900417,RIVERS BEND RESORT,EL DORADO,LOTUS,95651,64,10.0,3,1.0,Lead (Pb),0.0,Arsenic,0.0,Iron (Fe),0.0
285,900419,BACCHI RANCH WATER SYSTEM #1,EL DORADO,LOTUS,95651,100,6.0,2,0.0,Lead (Pb),0.0,Arsenic,0.0,Iron (Fe),0.0
286,900422,CRYSTAL CAVES MHP,EL DORADO,PLACERVILLE,95667,112,40.0,6,1.0,Lead (Pb),0.0,Arsenic,0.0,Iron (Fe),0.0
287,900505,CAMP SHELLY,EL DORADO,LIVERMORE,94550,200,15.0,3,0.0,Lead (Pb),0.0,Arsenic,0.0,Iron (Fe),0.0
288,900507,STANFORD SIERRA CAMP,EL DORADO,SOUTH LAKE TAHOE,96158,295,58.0,3,0.0,Lead (Pb),0.0,Arsenic,0.0,Iron (Fe),0.0
289,900529,STATION HOUSE INN,EL DORADO,SOUTH LAKE TAHOE,96150,310,4.0,4,0.0,Lead (Pb),0.0,Arsenic,0.0,Iron (Fe),0.0
290,900533,EAGLE FALLS,EL DORADO,SOUTH LAKE TAHOE,96150,500,1.0,1,0.0,Lead (Pb),0.0,Arsenic,0.0,Iron (Fe),0.0
291,900535,PINEWOOD INN,EL DORADO,SOUTH LAKE TAHOE,96150,70,1.0,3,0.0,Lead (Pb),0.0,Arsenic,0.0,Iron (Fe),0.0
292,900536,ECONO LODGE INN & SUITES,EL DORADO,SOUTH LAKE TAHOE,96150,100,7.0,6,0.0,Lead (Pb),0.0,Arsenic,0.0,Iron (Fe),0.0
293,900542,BAYVIEW CAMPGROUND,EL DORADO,SOUTH LAKE TAHOE,96158,100,2.0,1,0.0,Lead (Pb),0.0,Arsenic,0.0,Iron (Fe),0.0
294,900548,MARK TWAIN MOTEL,EL DORADO,DANVILLE,94526,25,21.0,2,0.0,Lead (Pb),0.0,Arsenic,0.0,Iron (Fe),0.0
295,900551,ALDER INN,EL DORADO,SOUTH LAKE TAHOE,96150,60,3.0,2,0.0,Lead (Pb),0.0,Arsenic,0.0,Iron (Fe),0.0
296,900553,BEVERLY LODGE,EL DORADO,SOUTH LAKE TAHOE,96151,25,2.0,3,0.0,Lead (Pb),0.0,Arsenic,0.0,Iron (Fe),0.0
297,900554,THE TRAILHEAD,EL DORADO,SOUTH LAKE TAHOE,96150,60,1.0,4,0.0,Lead (Pb),0.0,Arsenic,0.0,Iron (Fe),0.0
298,900557,EMERALD PINES RESORT CABINS,EL DORADO,SOUTH LAKE TAHOE,96150,10,8.0,4,0.0,Lead (Pb),0.0,Arsenic,0.0,Iron (Fe),0.0
299,900562,HEATHER LAKE ROAD TRACT,EL DORADO,SOUTH LAKE TAHOE,96150,39,13.0,2,0.0,Lead (Pb),0.0,Arsenic,0.0,Iron (Fe),0.0
300,900565,TAHOE VALLEY LODGE,EL DORADO,SOUTH LAKE TAHOE,96150,42,3.0,3,0.0,Lead (Pb),0.0,Arsenic,0.0,Iron (Fe),0.0
301,900576,ALPINE INN & SPA,EL DORADO,SARATOGA,95070,100,5.0,2,0.0,Lead (Pb),0.0,Arsenic,0.0,Iron (Fe),0.0
302,900579,MIDWAY INN,EL DORADO,SOUTH LAKE TAHOE,96150,40,2.0,2,0.0,Lead (Pb),0.0,Arsenic,0.0,Iron (Fe),0.0
303,900581,NATIONAL 9,EL DORADO,SOUTH LAKE TAHOE,96150,63,3.0,3,0.0,Lead (Pb),0.0,Arsenic,0.0,Iron (Fe),0.0
304,900582,ALPENROSE INN,EL DORADO,SOUTH LAKE TAHOE,96150,40,2.0,3,0.0,Lead (Pb),0.0,Arsenic,0.0,Iron (Fe),0.0
305,900585,GINGER MOUNTAIN LODGE,EL DORADO,SAN JOSE,95148,25,3.0,2,0.0,Lead (Pb),0.0,Arsenic,0.0,Iron (Fe),0.0
306,900586,A & A LAKE TAHOE INN,EL DORADO,SOUTH LAKE TAHOE,96150,25,2.0,2,0.0,Lead (Pb),0.0,Arsenic,0.0,Iron (Fe),0.0
307,900592,DEERFIELD LODGE @ HEAVENLY,EL DORADO,GRANITE BAY,95746,46,2.0,1,0.0,Lead (Pb),0.0,Arsenic,0.0,Iron (Fe),0.0
308,900621,SUMMIT PINES APARTMENTS,EL DORADO,SOUTH LAKE TAHOE,96151,25,1.0,4,0.0,Lead (Pb),0.0,Arsenic,0.0,Iron (Fe),0.0
309,900623,TAHOE TRAVEL INN,EL DORADO,SOUTH LAKE TAHOE,96150,104,3.0,3,0.0,Lead (Pb),0.0,Arsenic,0.0,Iron (Fe),0.0
310,900631,CAMP CONCORD,EL DORADO,CONCORD,94519,69,10.0,3,0.0,Lead (Pb),0.0,Arsenic,0.0,Iron (Fe),0.0
311,900636,TRUCKEE CREEK COTTAGES,EL DORADO,NEWPORT BEACH,92663,6,30.0,1,0.0,Lead (Pb),0.0,Arsenic,0.0,Iron (Fe),0.0
312,900648,TAHOE VALLEY ELEMENTARY SCHOOL,EL DORADO,SOUTH LAKE TAHOE,96150-4502,700,1.0,1,0.0,Lead (Pb),0.0,Arsenic,0.0,Iron (Fe),0.0
313,900651,SIERRA PINES CAMP,EL DORADO,SACRAMENTO,95818,220,67.0,2,0.0,Lead (Pb),0.0,Arsenic,0.0,Iron (Fe),0.0
314,900652,ECHO CHALET INC,EL DORADO,ECHO LAKES,95721,43,6.0,1,0.0,Lead (Pb),0.0,Arsenic,0.0,Iron (Fe),0.0
315,900654,BALDWIN BEACH,EL DORADO,SOUTH LAKE TAHOE,96158,200,14.0,3,0.0,Lead (Pb),0.0,Arsenic,0.0,Iron (Fe),0.0
316,900655,ROCKWATER APTS.,EL DORADO,LAFAYETTE,94549,50,24.0,1,0.0,Lead (Pb),0.0,Arsenic,0.0,Iron (Fe),0.0
317,900673,DRIFTWOOD APTS.,EL DORADO,STATELINE,89449,40,1.0,1,1.0,Lead (Pb),0.0,Arsenic,0.0,Iron (Fe),0.0
318,901229,ICE HOUSE CAMPGROUND,EL DORADO,PLEASANT GROVE,95668,200,84.0,1,0.0,Lead (Pb),0.0,Arsenic,0.0,Iron (Fe),0.0
319,901230,LOON LAKE CAMPGROUND,EL DORADO,PLEASANT GROVE,95668,125,45.0,1,0.0,Lead (Pb),0.0,Arsenic,0.0,Iron (Fe),0.0
320,901247,YELLOW JACKET CAMPGROUND,EL DORADO,PLEASANT GROVE,95668,350,152.0,1,0.0,Lead (Pb),0.0,Arsenic,0.0,Iron (Fe),0.0
321,901249,WENCH CREEK CAMPGROUND,EL DORADO,PLEASANT GROVE,95668,250,102.0,1,0.0,Lead (Pb),0.0,Arsenic,0.0,Iron (Fe),0.0
322,910002,SOUTH TAHOE PUD - MAIN,EL DORADO,SOUTH LAKE TAHOE,96150,121124,14243.0,860,566.0,Lead (Pb),0.0,Arsenic,2.0,Iron (Fe),2.0
323,910006,GRIZZLY FLATS COMMUNITY SERVIC,EL DORADO,GRIZZLY FLATS,95636,1300,575.0,4,4.0,Lead (Pb),0.0,Arsenic,0.0,Iron (Fe),0.0
324,910007,LUKINS BROTHERS WATER COMPANY,EL DORADO,SOUTH LAKE TAHOE,96150,250,972.0,30,14.0,Lead (Pb),0.0,Arsenic,0.0,Iron (Fe),0.0
325,910012,TAHOE CITY PUD - RUBICON,EL DORADO,TAHOE CITY,96145,703,621.0,3,3.0,Lead (Pb),0.0,Arsenic,0.0,Iron (Fe),0.0
326,910013,GEORGETOWN DIVIDE PUD,EL DORADO,GEORGETOWN,95634,9237,3638.0,8,6.0,Lead (Pb),0.0,Arsenic,0.0,Iron (Fe),0.0
327,910015,TAHOE KEYS WATER COMPANY,EL DORADO,SOUTH LAKE TAHOE,96150,1200,1563.0,14,3.0,Lead (Pb),0.0,Arsenic,0.0,Iron (Fe),0.0
328,910017,EL DORADO ID - STRAWBERRY,EL DORADO,PLACERVILLE,95667,358,147.0,5,5.0,Lead (Pb),0.0,Arsenic,0.0,Iron (Fe),0.0
329,910018,EL DORADO ID - OUTINGDALE,EL DORADO,PLACERVILLE,95667,497,191.0,11,9.0,Lead (Pb),0.0,Arsenic,0.0,Iron (Fe),0.0
330,910019,LAKESIDE PARK ASSOCIATION,EL DORADO,SOUTH LAKE TAHOE,96150,1000,134.0,9,4.0,Lead (Pb),0.0,Arsenic,0.0,Iron (Fe),0.0
331,1000001,ALDER SPRINGS,FRESNO,AUBERRY,93602,73,22.0,8,3.0,Lead (Pb),1.0,Arsenic,0.0,Iron (Fe),0.0
332,1000004,BELMONT WATER CORPORATION,FRESNO,FRESNO,93737,264,40.0,8,3.0,Lead (Pb),0.0,Arsenic,0.0,Iron (Fe),0.0
333,1000012,COURTRIGHT LAKE VILLAGE,FRESNO,PRATHER,93651,150,60.0,1,1.0,Lead (Pb),0.0,Arsenic,0.0,Iron (Fe),0.0
334,1000015,DINKEY CREEK WATER IMPROVEMENT,FRESNO,PRATHER,93651,104,25.0,3,1.0,Lead (Pb),0.0,Arsenic,0.0,Iron (Fe),0.0
335,1000016,DORABELLE MUTUAL WATER COMPANY,FRESNO,CLOVIS,93619,72,18.0,11,4.0,Lead (Pb),0.0,Arsenic,0.0,Iron (Fe),0.0
336,1000017,DOWVILLE TRACT ASSOCIATION,FRESNO,COARSEGOLD,93614,150,2.0,1,1.0,Lead (Pb),0.0,Arsenic,0.0,Iron (Fe),0.0
337,1000018,EASTON ESTATES WATER COMPANY,FRESNO,FRESNO,93704,302,1.0,33,11.0,Lead (Pb),1.0,Arsenic,0.0,Iron (Fe),1.0
338,1000019,FCSA #30/EL PORVENIR,FRESNO,FRESNO,93722,185,56.0,56,18.0,Lead (Pb),0.0,Arsenic,0.0,Iron (Fe),0.0
339,1000021,FCSA #05/WILDWOOD ISLAND,FRESNO,FRESNO,93722,417,149.0,24,9.0,Lead (Pb),0.0,Arsenic,0.0,Iron (Fe),0.0
340,1000023,FCSA #14/BELMONT MANOR,FRESNO,FRESNO,93722,115,41.0,31,3.0,Lead (Pb),0.0,Arsenic,0.0,Iron (Fe),0.0
341,1000039,FCSA #10/CUMORAH KNOLLS,FRESNO,FRESNO,93722,132,47.0,50,10.0,Lead (Pb),0.0,Arsenic,0.0,Iron (Fe),0.0
342,1000040,FCWWD #37/MILE HIGH,FRESNO,FRESNO,93722,128,46.0,118,57.0,Lead (Pb),1.0,Arsenic,0.0,Iron (Fe),3.0
343,1000041,FCWWD #38/SKY HARBOUR,FRESNO,FRESNO,93722,165,60.0,18,6.0,Lead (Pb),0.0,Arsenic,0.0,Iron (Fe),0.0
344,1000042,FCWWD #40/SHAVER SPRINGS,FRESNO,FRESNO,93722,193,69.0,182,86.0,Lead (Pb),0.0,Arsenic,0.0,Iron (Fe),24.0
345,1000051,HUNTINGTON PINES MUTUAL COMPANY,FRESNO,FRESNO,93710,304,1.0,2,0.0,Lead (Pb),0.0,Arsenic,0.0,Iron (Fe),0.0
346,1000053,LANARE COMMUNITY SERVICES DIST,FRESNO,COALINGA,93210,660,1.0,59,51.0,Lead (Pb),0.0,Arsenic,6.0,Iron (Fe),1.0
347,1000056,MEADOW LAKES CLUB,FRESNO,FRESNO,93728,240,120.0,19,10.0,Lead (Pb),0.0,Arsenic,0.0,Iron (Fe),0.0
348,1000057,DEL ORO WATER CO - METROPOLITAN DISTRICT,FRESNO,CHICO,95927,96,29.0,13,3.0,Lead (Pb),0.0,Arsenic,0.0,Iron (Fe),0.0
349,1000058,MUSICK CREEK TRACT ASSOCIATION,FRESNO,CLOVIS,93619,55,44.0,12,8.0,Lead (Pb),0.0,Arsenic,0.0,Iron (Fe),0.0
350,1000059,MUSICK HEIGHTS MUTUAL,FRESNO,FRESNO,93711,44,27.0,8,6.0,Lead (Pb),0.0,Arsenic,0.0,Iron (Fe),0.0
351,1000060,MUSICK MEADOWS #1,FRESNO,MADERA,93637,29,1.0,24,11.0,Lead (Pb),1.0,Arsenic,0.0,Iron (Fe),0.0
352,1000061,MUSICK MEADOWS #2,FRESNO,SHAVER LAKE,93664,100,74.0,13,9.0,Lead (Pb),0.0,Arsenic,0.0,Iron (Fe),0.0
353,1000063,NEW AUBERRY WATER ASSOCIATION,FRESNO,AUBERRY,93602,120,35.0,16,6.0,Lead (Pb),0.0,Arsenic,0.0,Iron (Fe),0.0
354,1000069,SHAVER LAKE HEIGHTS PROP ASSN,FRESNO,PRATHER,93651,345,200.0,15,9.0,Lead (Pb),0.0,Arsenic,0.0,Iron (Fe),0.0
355,1000071,LAKEVIEW IMPROVEMENT ASSOCIATION #1,FRESNO,COALINGA,93210,160,65.0,45,39.0,Lead (Pb),0.0,Arsenic,5.0,Iron (Fe),0.0
356,1000072,SHAVER LAKE POINT #2,FRESNO,FRESNO,93729,108,93.0,76,61.0,Lead (Pb),0.0,Arsenic,8.0,Iron (Fe),0.0
357,1000075,TRACT 1199 WATER SYSTEM,FRESNO,SELMA,93662,25,10.0,3,0.0,Lead (Pb),0.0,Arsenic,0.0,Iron (Fe),0.0
358,1000078,FCWWD #42/ALLUVIAL & FANCHER,FRESNO,FRESNO,93722,343,291.0,68,12.0,Lead (Pb),0.0,Arsenic,0.0,Iron (Fe),0.0
359,1000085,US ARMY CORPS/ISLAND PARK,FRESNO,PIEDRA,93649,75,15.0,3,0.0,Lead (Pb),0.0,Arsenic,0.0,Iron (Fe),0.0
360,1000094,FCPG/KEARNEY PARK,FRESNO,FRESNO,93721,103,25.0,2,0.0,Lead (Pb),0.0,Arsenic,0.0,Iron (Fe),0.0
361,1000096,FCPG/AVOCADO LAKE PARK,FRESNO,FRESNO,93721,102,8.0,2,0.0,Lead (Pb),0.0,Arsenic,0.0,Iron (Fe),0.0
362,1000097,FCPG/LOST LAKE RECREATION AREA,FRESNO,FRESNO,93721,109,20.0,4,0.0,Lead (Pb),0.0,Arsenic,0.0,Iron (Fe),0.0
363,1000104,CENTERVILLE SCHOOL,FRESNO,SANGER,93657,280,3.0,4,1.0,Lead (Pb),0.0,Arsenic,0.0,Iron (Fe),0.0
364,1000105,MADISON ELEMENTARY SCHOOL,FRESNO,FRESNO,93722,900,8.0,15,3.0,Lead (Pb),0.0,Arsenic,0.0,Iron (Fe),0.0
365,1000111,PINE RIDGE SCHOOL,FRESNO,AUBERRY,93602,99,1.0,6,4.0,Lead (Pb),0.0,Arsenic,0.0,Iron (Fe),0.0
366,1000112,FAIRMONT SCHOOL,FRESNO,SANGER,93657,483,6.0,11,10.0,Lead (Pb),0.0,Arsenic,0.0,Iron (Fe),0.0
367,1000126,BEARSKIN MEADOW DIABETIC YOUTH CAMP,FRESNO,KINGS CANYON NATIONAL PARK,93633,200,12.0,3,3.0,Lead (Pb),0.0,Arsenic,0.0,Iron (Fe),0.0
368,1000134,USFS/GLEN MEADOW  WORK CENTER,FRESNO,CLOVIS,93611,25,18.0,2,1.0,Lead (Pb),0.0,Arsenic,0.0,Iron (Fe),0.0
369,1000136,USFS/TRIMMER WORK CENTER,FRESNO,CLOVIS,93611,56,18.0,33,15.0,Lead (Pb),0.0,Arsenic,0.0,Iron (Fe),0.0
370,1000148,WONDER VALLEY RIVER WAY RANCH,FRESNO,SANGER,93657,412,2.0,31,8.0,Lead (Pb),0.0,Arsenic,0.0,Iron (Fe),0.0
371,1000151,ARMENIAN CHURCH CAMP,FRESNO,DUNLAP,93621,218,11.0,9,6.0,Lead (Pb),0.0,Arsenic,0.0,Iron (Fe),0.0
372,1000161,WISH-I-AH CARE CENTER,FRESNO,FRESNO,93721,85,5.0,8,2.0,Lead (Pb),0.0,Arsenic,0.0,Iron (Fe),0.0
373,1000162,FRESNO MOTEL,FRESNO,YORBA LINDA,92886,25,1.0,2,0.0,Lead (Pb),0.0,Arsenic,0.0,Iron (Fe),0.0
374,1000172,LAKESHORE RESORT,FRESNO,LAKESHORE,93634,113,50.0,1,1.0,Lead (Pb),0.0,Arsenic,0.0,Iron (Fe),0.0
375,1000175,CASACA VINEYARDS,FRESNO,FIVE POINTS,93624,40,7.0,5,4.0,Lead (Pb),0.0,Arsenic,0.0,Iron (Fe),0.0
376,1000176,J R SIMPLOT COMPANY,FRESNO,HELM,93627,70,5.0,6,1.0,Lead (Pb),0.0,Arsenic,0.0,Iron (Fe),0.0
377,1000177,I-5 AND PANOCHE DEVELOPMENT,FRESNO,AVENAL,93204,85,2.0,8,4.0,Lead (Pb),0.0,Arsenic,0.0,Iron (Fe),0.0
378,1000178,I-5 AND HWY 198 REST AREA,FRESNO,AVENAL,93204,225,1.0,6,2.0,Lead (Pb),0.0,Arsenic,0.0,Iron (Fe),0.0
379,1000180,ALTA ELEMENTARY SCHOOL,FRESNO,REEDLEY,93654,390,1.0,6,0.0,Lead (Pb),0.0,Arsenic,0.0,Iron (Fe),0.0
380,1000181,ALVINA SCHOOL,FRESNO,CARUTHERS,93609,240,8.0,28,5.0,Lead (Pb),0.0,Arsenic,2.0,Iron (Fe),0.0
381,1000182,BURREL UNION ELEMENTARY SCHOOL,FRESNO,BURREL,93607,178,1.0,4,2.0,Lead (Pb),0.0,Arsenic,0.0,Iron (Fe),0.0
382,1000184,DUNLAP K-8 SCHOOL,FRESNO,REEDLEY,93654,408,1.0,4,0.0,Lead (Pb),0.0,Arsenic,0.0,Iron (Fe),0.0
383,1000185,GREAT WESTERN ELEMENTARY SCHOOL,FRESNO,REEDLEY,93654,411,1.0,5,0.0,Lead (Pb),0.0,Arsenic,0.0,Iron (Fe),0.0
384,1000186,HELM SCHOOL,FRESNO,SAN JOAQUIN,93660,150,2.0,7,3.0,Lead (Pb),0.0,Arsenic,0.0,Iron (Fe),0.0
385,1000187,INDIANOLA SCHOOL,FRESNO,SELMA,93662,511,1.0,14,2.0,Lead (Pb),0.0,Arsenic,0.0,Iron (Fe),0.0
386,1000189,LATON HIGH SCHOOL,FRESNO,LATON,93242,260,1.0,7,0.0,Lead (Pb),0.0,Arsenic,0.0,Iron (Fe),0.0
387,1000190,LONE STAR SCHOOL,FRESNO,SANGER,93657,436,6.0,5,0.0,Lead (Pb),0.0,Arsenic,0.0,Iron (Fe),0.0
388,1000192,MONROE SCHOOL,FRESNO,FRESNO,93725,200,3.0,7,1.0,Lead (Pb),0.0,Arsenic,0.0,Iron (Fe),0.0
389,1000193,NAVELENCIA SCHOOL,FRESNO,REEDLEY,93654,330,1.0,6,0.0,Lead (Pb),0.0,Arsenic,0.0,Iron (Fe),0.0
390,1000194,PACIFIC UNION ELEMENTARY SCHOOL,FRESNO,FRESNO,93725,490,1.0,5,0.0,Lead (Pb),0.0,Arsenic,0.0,Iron (Fe),0.0
391,1000196,RIVERVIEW SCHOOL,FRESNO,REEDLEY,93654,469,8.0,5,0.0,Lead (Pb),0.0,Arsenic,0.0,Iron (Fe),0.0
392,1000198,TERRY SCHOOL,FRESNO,SELMA,93662,236,25.0,8,1.0,Lead (Pb),0.0,Arsenic,0.0,Iron (Fe),0.0
393,1000199,ALICE MANOR,FRESNO,FOWLER,93625,46,1.0,18,3.0,Lead (Pb),0.0,Arsenic,0.0,Iron (Fe),0.0
394,1000200,RUBYS VALLEY CARE HOME,FRESNO,FRESNO,93706,75,1.0,9,3.0,Lead (Pb),0.0,Arsenic,0.0,Iron (Fe),0.0
395,1000201,SUN EMPIRE SCHOOL,FRESNO,KERMAN,93630,780,9.0,8,2.0,Lead (Pb),0.0,Arsenic,0.0,Iron (Fe),0.0
396,1000204,AMERICAN UNION SCHOOL,FRESNO,FRESNO,93706,250,33.0,13,0.0,Lead (Pb),0.0,Arsenic,0.0,Iron (Fe),0.0
397,1000206,HOUGHTON-KEARNEY SCHOOL,FRESNO,FRESNO,93722,310,4.0,9,0.0,Lead (Pb),0.0,Arsenic,0.0,Iron (Fe),0.0
398,1000207,CENTRAL WEST ARTS CENTER,FRESNO,FRESNO,93722,56,7.0,20,13.0,Lead (Pb),0.0,Arsenic,0.0,Iron (Fe),0.0
399,1000208,ROOSEVELT ELEMENTARY SCHOOL,FRESNO,FRESNO,93722,370,1.0,10,1.0,Lead (Pb),0.0,Arsenic,0.0,Iron (Fe),0.0
400,1000213,HARRIS FARMS/HORSE BARN,FRESNO,COALINGA,93210,100,2.0,12,9.0,Lead (Pb),0.0,Arsenic,0.0,Iron (Fe),0.0
401,1000214,HARRIS RANCH RESTAURANT,FRESNO,COALINGA,93210,1750,4.0,7,2.0,Lead (Pb),0.0,Arsenic,0.0,Iron (Fe),0.0
402,1000217,CENTRAL HIGH SCHOOL WEST,FRESNO,FRESNO,93722,1127,10.0,11,2.0,Lead (Pb),0.0,Arsenic,0.0,Iron (Fe),0.0
403,1000221,WASHINGTON UNION HIGH SCHOOL,FRESNO,FRESNO,93706,1000,23.0,55,6.0,Lead (Pb),0.0,Arsenic,0.0,Iron (Fe),0.0
404,1000223,WISHON VILLAGE,FRESNO,SHAVER LAKE,93664,250,106.0,5,4.0,Lead (Pb),0.0,Arsenic,0.0,Iron (Fe),0.0
405,1000225,BIGGERS PONDEROSA TRAILER PARK,FRESNO,SANGER,93657,25,22.0,6,0.0,Lead (Pb),0.0,Arsenic,0.0,Iron (Fe),0.0
406,1000229,GREEN ACRES MOBILE HOME ESTATE,FRESNO,FRESNO,93722,350,1.0,14,3.0,Lead (Pb),0.0,Arsenic,0.0,Iron (Fe),0.0
407,1000238,CAMDEN TRAILER PARK,FRESNO,FRESNO,93706,75,25.0,27,16.0,Lead (Pb),0.0,Arsenic,5.0,Iron (Fe),0.0
408,1000244,SHADY LAKES MOBILE HOME PARK,FRESNO,STOCKTON,95219,160,60.0,20,4.0,Lead (Pb),0.0,Arsenic,0.0,Iron (Fe),0.0
409,1000247,SHERWOOD FOREST MHP,FRESNO,PLEASANTON,94588,126,1.0,12,4.0,Lead (Pb),0.0,Arsenic,0.0,Iron (Fe),0.0
410,1000248,DOUBLE L MOBILE RANCH PARK,FRESNO,FRESNO,93728,80,37.0,19,2.0,Lead (Pb),0.0,Arsenic,0.0,Iron (Fe),0.0
411,1000249,COVE ISLAND RESORT,FRESNO, ,,40,37.0,3,1.0,Lead (Pb),0.0,Arsenic,0.0,Iron (Fe),0.0
412,1000257,MT ARARAT MOBILE HOME PARK,FRESNO,OAK VIEW,93022,43,36.0,66,21.0,Lead (Pb),0.0,Arsenic,0.0,Iron (Fe),0.0
413,1000258,DRIFTWOOD MOBILEHOME PARK,FRESNO,RAMONA,92065,30,41.0,3,1.0,Lead (Pb),0.0,Arsenic,0.0,Iron (Fe),0.0
414,1000259,NEW HORIZONS MOBILE/RV PARK,FRESNO,WOODINVILLE,98077,82,77.0,12,7.0,Lead (Pb),0.0,Arsenic,0.0,Iron (Fe),0.0
415,1000260,SANDY CREEK VILLAGE MHP,FRESNO,OAK VIEW,93022,90,45.0,13,5.0,Lead (Pb),0.0,Arsenic,0.0,Iron (Fe),0.0
416,1000261,LAKERIDGE CAMPING/BOATING RSRT,FRESNO,FRESNO,93722,32,107.0,2,0.0,Lead (Pb),0.0,Arsenic,0.0,Iron (Fe),0.0
417,1000264,SUNNYSLOPE CAMPGROUNDS,FRESNO,PIEDRA,93649,34,101.0,5,0.0,Lead (Pb),0.0,Arsenic,0.0,Iron (Fe),0.0
418,1000265,MARY LOU MOBILE HOME PARK,FRESNO,AUBERRY,93602,60,34.0,13,5.0,Lead (Pb),0.0,Arsenic,0.0,Iron (Fe),0.0
419,1000267,KINGS CANYON MOBILE HOME PARK,FRESNO,RANCHO SANTE FE,92067,120,26.0,64,12.0,Lead (Pb),0.0,Arsenic,0.0,Iron (Fe),0.0
420,1000270,FCPG/CHOINUMNI CAMPGROUND,FRESNO,FRESNO,93721,52,35.0,2,0.0,Lead (Pb),0.0,Arsenic,0.0,Iron (Fe),0.0
421,1000276,ORANGE CENTER SCHOOL,FRESNO,FRESNO,93806,410,1.0,10,2.0,Lead (Pb),0.0,Arsenic,0.0,Iron (Fe),0.0
422,1000277,ELM COURT,FRESNO,FRESNO,93701,64,12.0,6,2.0,Lead (Pb),0.0,Arsenic,0.0,Iron (Fe),0.0
423,1000279,U.C. KEARNEY FIELD STATION,FRESNO,PARLIER,93648,250,18.0,6,1.0,Lead (Pb),0.0,Arsenic,0.0,Iron (Fe),0.0
424,1000280,SIERRA HIGH SCHOOL,FRESNO,TOLLHOUSE,93667,690,20.0,6,0.0,Lead (Pb),0.0,Arsenic,0.0,Iron (Fe),0.0
425,1000282,SCE/CAMP EDISON-SHAVER,FRESNO,SHAVER LAKE,93664,200,140.0,4,0.0,Lead (Pb),0.0,Arsenic,0.0,Iron (Fe),0.0
426,1000285,WASHINGTON COLONY SCHOOL,FRESNO,FRESNO,93706,550,12.0,3,3.0,Lead (Pb),0.0,Arsenic,0.0,Iron (Fe),0.0
427,1000295,KINGS PARK APARTMENTS,FRESNO,MARYSVILLE,98270,120,40.0,4,2.0,Lead (Pb),0.0,Arsenic,0.0,Iron (Fe),0.0
428,1000298,WOODWARD BLUFFS MHP,FRESNO,ROSEVILLE,95678,300,172.0,5,3.0,Lead (Pb),0.0,Arsenic,0.0,Iron (Fe),0.0
429,1000299,THREE PALMS MOBILEHOME PARK,FRESNO,SACRAMENTO,95835,300,105.0,17,4.0,Lead (Pb),0.0,Arsenic,0.0,Iron (Fe),0.0
430,1000315,CLAY JOINT ELEMENTARY SCHOOL,FRESNO,KINGSBURG,93631,275,5.0,6,1.0,Lead (Pb),0.0,Arsenic,0.0,Iron (Fe),0.0
431,1000316,KINGS CANYON HIGH SCHOOL,FRESNO,REEDLEY,93654,120,1.0,10,0.0,Lead (Pb),0.0,Arsenic,0.0,Iron (Fe),0.0
432,1000318,LAKEVIEW RESORT,FRESNO,PIEDRA,93649,52,1.0,2,0.0,Lead (Pb),0.0,Arsenic,0.0,Iron (Fe),0.0
433,1000319,HUNTINGTON LAKE RESORT,FRESNO,SAN JOSE,95120,30,1.0,1,0.0,Lead (Pb),0.0,Arsenic,0.0,Iron (Fe),0.0
434,1000324,MANNING GARDENS CARE CENTER INC,FRESNO,FRESNO,93725,144,1.0,10,4.0,Lead (Pb),0.0,Arsenic,0.0,Iron (Fe),1.0
435,1000330,KINGS CANYON LODGE,FRESNO,KINGS CANYON NATL PK,93633,32,3.0,1,0.0,Lead (Pb),0.0,Arsenic,0.0,Iron (Fe),0.0
436,1000345,PANOCHE WATER DISTRICT,FRESNO,FIREBAUGH,93622,146,46.0,108,32.0,Lead (Pb),0.0,Arsenic,0.0,Iron (Fe),0.0
437,1000359,FCSA #32/CANTUA CREEK,FRESNO,FRESNO,93722,255,79.0,48,18.0,Lead (Pb),0.0,Arsenic,0.0,Iron (Fe),0.0
438,1000360,COTTON WEST AG MANAGEMENT,FRESNO,HURON,93234,30,4.0,4,0.0,Lead (Pb),0.0,Arsenic,0.0,Iron (Fe),0.0
439,1000361,WESTLANDS WATER DISTRICT,FRESNO,FRESNO,93210,53,4.0,2,0.0,Lead (Pb),0.0,Arsenic,0.0,Iron (Fe),0.0
440,1000362,GOLDEN STATE VINTNERS,FRESNO,FRESNO,93706,41,1.0,9,1.0,Lead (Pb),1.0,Arsenic,0.0,Iron (Fe),0.0
441,1000363,SANGER SEWAGE TREATMENT PLANT,FRESNO,SANGER,93657,31,3.0,6,1.0,Lead (Pb),0.0,Arsenic,0.0,Iron (Fe),0.0
442,1000365,PONDEROSA TRAILER PARK,FRESNO,FRESNO,93730,156,39.0,5,3.0,Lead (Pb),0.0,Arsenic,0.0,Iron (Fe),0.0
443,1000366,SUNNYSIDE CONVALESCENT HOSP,FRESNO,FRESNO,93725,275,1.0,12,3.0,Lead (Pb),0.0,Arsenic,0.0,Iron (Fe),0.0
444,1000367,SELMA HIGH SCHOOL,FRESNO,SELMA,93662,2225,2.0,11,2.0,Lead (Pb),0.0,Arsenic,0.0,Iron (Fe),0.0
445,1000369,ZONNEVELD DAIRY - CEDAR,FRESNO,LATON,93242,70,19.0,37,34.0,Lead (Pb),0.0,Arsenic,4.0,Iron (Fe),0.0
446,1000377,ST NICHOLAS RANCH & RETREAT,FRESNO,DUNLAP,93621,25,2.0,11,6.0,Lead (Pb),0.0,Arsenic,0.0,Iron (Fe),0.0
447,1000378,SUNSET WEST COMMUNITY LLC,FRESNO, ,,350,159.0,22,10.0,Lead (Pb),0.0,Arsenic,0.0,Iron (Fe),0.0
448,1000381,SUN MAID GROWERS OF CALIFORNIA,FRESNO,KINGSBURG,93631,750,11.0,17,0.0,Lead (Pb),0.0,Arsenic,0.0,Iron (Fe),0.0
449,1000383,GUARDIAN INDUSTRIES LLC,FRESNO,SANTA BARBARA,93105,291,2.0,22,4.0,Lead (Pb),0.0,Arsenic,0.0,Iron (Fe),0.0
450,1000389,WILD WATER ADVENTURES,FRESNO,CLOVIS,93613,3000,11.0,5,0.0,Lead (Pb),0.0,Arsenic,0.0,Iron (Fe),0.0
451,1000399,SAF-T-CAB,FRESNO,FRESNO,93745,130,2.0,3,0.0,Lead (Pb),0.0,Arsenic,0.0,Iron (Fe),0.0
452,1000405,PIEDRA PARK ASSOCIATION,FRESNO,PIEDRA,93649,24,15.0,4,4.0,Lead (Pb),0.0,Arsenic,0.0,Iron (Fe),0.0
453,1000406,FRESNO HMONG ALLIANCE CHURCH,FRESNO,FRESNO,93727,55,4.0,2,0.0,Lead (Pb),0.0,Arsenic,0.0,Iron (Fe),0.0
454,1000407,GEORGE COX WATER SYSTEM,FRESNO,REEDLEY,93654,40,20.0,10,4.0,Lead (Pb),0.0,Arsenic,0.0,Iron (Fe),0.0
455,1000411,O'NEILL VINTNERS & DISTILLERS,FRESNO,PARLIER,93648,90,2.0,21,2.0,Lead (Pb),0.0,Arsenic,0.0,Iron (Fe),0.0
456,1000416,EASTON PRESBYTERIAN CHURCH,FRESNO,FRESNO,93706,450,1.0,9,0.0,Lead (Pb),0.0,Arsenic,0.0,Iron (Fe),0.0
457,1000418,GERAWAN FARMING PLANT 5 CENTERVILLE,FRESNO,SANGER,93657,35,2.0,2,0.0,Lead (Pb),0.0,Arsenic,0.0,Iron (Fe),0.0
458,1000424,PRATHER WATER DISTRICT,FRESNO,FRESNO,93720,449,2.0,7,1.0,Lead (Pb),0.0,Arsenic,0.0,Iron (Fe),0.0
459,1000426,RIVERBEND MOBILE HOME & RV PARK,FRESNO,GRANITE BAY,95746,400,46.0,12,6.0,Lead (Pb),0.0,Arsenic,0.0,Iron (Fe),0.0
460,1000430,COUNTRY VIEW ALZHEIMER CENTER,FRESNO,FRESNO,93706,125,1.0,16,6.0,Lead (Pb),0.0,Arsenic,0.0,Iron (Fe),0.0
461,1000435,OAK KNOLLS TRAILER PARK,FRESNO,SANGER,93657,25,19.0,9,0.0,Lead (Pb),0.0,Arsenic,0.0,Iron (Fe),0.0
462,1000439,SOMMERVILLE ALMOND TREE OWNERS ASSN,FRESNO,KLAMATH FALLS,97601,500,4.0,9,0.0,Lead (Pb),0.0,Arsenic,0.0,Iron (Fe),0.0
463,1000440,HMC GROUP COLD STORAGE,FRESNO,KINGSBURG,93631,150,1.0,6,0.0,Lead (Pb),0.0,Arsenic,0.0,Iron (Fe),0.0
464,1000442,CHERRY AUCTION,FRESNO,FRESNO,93706,7000,8.0,6,0.0,Lead (Pb),0.0,Arsenic,0.0,Iron (Fe),0.0
465,1000443,BLUFF POINTE GOLF COURSE,FRESNO,FRESNO,93727,200,1.0,2,2.0,Lead (Pb),0.0,Arsenic,0.0,Iron (Fe),0.0
466,1000445,LINDA VISTA FARMS,FRESNO,RIVERDALE,93656,63,17.0,10,6.0,Lead (Pb),0.0,Arsenic,0.0,Iron (Fe),0.0
467,1000447,E&J GALLO WINERY,FRESNO,FRESNO,93727,205,1.0,31,0.0,Lead (Pb),0.0,Arsenic,0.0,Iron (Fe),0.0
468,1000452,RAY MOLES FARMS (MARKS AVE),FRESNO,FRESNO,93706,90,1.0,11,11.0,Lead (Pb),0.0,Arsenic,0.0,Iron (Fe),0.0
469,1000453,JOHNNY QUIK STORE #149,FRESNO,FRESNO,93727,75,7.0,5,0.0,Lead (Pb),0.0,Arsenic,0.0,Iron (Fe),0.0
470,1000454,VIKING RV PARK,FRESNO,KINGSBURG,93631,104,50.0,3,0.0,Lead (Pb),0.0,Arsenic,0.0,Iron (Fe),0.0
471,1000457,CHURCH OF THE REDEEMER,FRESNO,SELMA,93662,150,1.0,3,0.0,Lead (Pb),0.0,Arsenic,0.0,Iron (Fe),0.0
472,1000459,ROAD RUNNER FOOD AND FUEL,FRESNO,CUTLER,93615,300,1.0,150,20.0,Lead (Pb),0.0,Arsenic,0.0,Iron (Fe),0.0
473,1000460,BELMONT TEMPERANCE PROPERTY WATER SYSTEM,FRESNO,CLOVIS,93611,27,2.0,18,0.0,Lead (Pb),0.0,Arsenic,0.0,Iron (Fe),0.0
474,1000461,CARGILL MEAT SOLUTIONS CORPORATION,FRESNO,FRESNO,93706,1100,4.0,47,1.0,Lead (Pb),0.0,Arsenic,0.0,Iron (Fe),0.0
475,1000462,FOUR BAR C FARMS,FRESNO,FRESNO,93706,40,5.0,2,2.0,Lead (Pb),0.0,Arsenic,0.0,Iron (Fe),0.0
476,1000465,BATTH DEHYDRATOR,FRESNO,CARUTHERS,93609,200,1.0,88,18.0,Lead (Pb),0.0,Arsenic,0.0,Iron (Fe),0.0
477,1000467,USA WASTE OF CALIFORNIA,FRESNO,FRESNO,93725,50,4.0,6,0.0,Lead (Pb),0.0,Arsenic,0.0,Iron (Fe),0.0
478,1000468,CARUTHERS RAISIN PACKING CO,FRESNO,CARUTHERS,93609,150,9.0,20,4.0,Lead (Pb),0.0,Arsenic,0.0,Iron (Fe),0.0
479,1000469,LION RAISINS EMPLOYEE LABOR CAMP,FRESNO,SELMA,93662,35,1.0,6,3.0,Lead (Pb),0.0,Arsenic,0.0,Iron (Fe),0.0
480,1000472,PG&E HELMS SUPPORT FACILITY,FRESNO,AUBERRY,93602,40,1.0,85,56.0,Lead (Pb),0.0,Arsenic,6.0,Iron (Fe),0.0
481,1000473,BELMONT COUNTRY CLUB,FRESNO,FRESNO,93737,150,1.0,3,0.0,Lead (Pb),0.0,Arsenic,0.0,Iron (Fe),0.0
482,1000474,BEAR MOUNTAIN LIBRARY/ACT CNTR,FRESNO,FRESNO,93721,50,1.0,6,0.0,Lead (Pb),0.0,Arsenic,0.0,Iron (Fe),0.0
483,1000476,FOOTHILL ELEMENTARY SCHOOL,FRESNO,TOLLHOUSE,93667,900,12.0,10,4.0,Lead (Pb),1.0,Arsenic,0.0,Iron (Fe),0.0
484,1000479,FRANZIA WINERY-SANGER,FRESNO,CUTLER,93615,39,2.0,106,6.0,Lead (Pb),0.0,Arsenic,0.0,Iron (Fe),0.0
485,1000480,FOWLER PACKING COMPANY,FRESNO,FRESNO,93725,470,5.0,43,1.0,Lead (Pb),0.0,Arsenic,0.0,Iron (Fe),0.0
486,1000482,WOLF LAKES PARK,FRESNO,SANGER,93657,150,5.0,6,0.0,Lead (Pb),0.0,Arsenic,0.0,Iron (Fe),0.0
487,1000483,RIVER RANCH RAISINS,FRESNO,RENO,89519,40,1.0,9,1.0,Lead (Pb),0.0,Arsenic,0.0,Iron (Fe),0.0
488,1000484,FCSA #34/ MILLERTON NEW TOWN,FRESNO,FRESNO,93722,722,1.0,26,11.0,Lead (Pb),0.0,Arsenic,0.0,Iron (Fe),0.0
489,1000485,TESSENDERLO KERLEY INC,FRESNO,FRESNO,93725,70,2.0,158,12.0,Lead (Pb),0.0,Arsenic,0.0,Iron (Fe),0.0
490,1000486,LION RAISINS PACKING COMPANY,FRESNO,SELMA,93662,80,3.0,15,0.0,Lead (Pb),0.0,Arsenic,0.0,Iron (Fe),0.0
491,1000488,DANTE CLUB OF FRESNO,FRESNO,FRESNO,93722,240,1.0,3,0.0,Lead (Pb),0.0,Arsenic,0.0,Iron (Fe),0.0
492,1000490,LOS GATOS TOMATO PRODUCTS,FRESNO,HURON,93234-0429,200,1.0,4,1.0,Lead (Pb),0.0,Arsenic,0.0,Iron (Fe),0.0
493,1000492,TABERNACLE OF PRAISE CHURCH,FRESNO,SANGER,93657,30,5.0,2,0.0,Lead (Pb),0.0,Arsenic,0.0,Iron (Fe),0.0
494,1000495,GODS FAMILY CHURCH,FRESNO,FRESNO,93722,586,1.0,5,1.0,Lead (Pb),0.0,Arsenic,0.0,Iron (Fe),0.0
495,1000496,COPPER RIVER COUNTRY CLUB,FRESNO,FRESNO,93729,125,1.0,5,0.0,Lead (Pb),0.0,Arsenic,0.0,Iron (Fe),0.0
496,1000497,OAK VIEW TERRACE,FRESNO,CLOVIS,93619,25,9.0,4,0.0,Lead (Pb),0.0,Arsenic,0.0,Iron (Fe),0.0
497,1000501,TOLLHOUSE MARKET,FRESNO,CLOVIS,93619,37,8.0,7,1.0,Lead (Pb),0.0,Arsenic,0.0,Iron (Fe),0.0
498,1000502,ST JUDE CATHOLIC CHURCH,FRESNO,FRESNO,93706,99,3.0,3,0.0,Lead (Pb),0.0,Arsenic,0.0,Iron (Fe),0.0
499,1000507,GILLETTE CITRUS COMPANY,FRESNO,DINUBA,93618,74,5.0,40,0.0,Lead (Pb),0.0,Arsenic,0.0,Iron (Fe),0.0
500,1000508,SIERRA LUTHERAN CHURCH,FRESNO,AUBERRY,93602,25,1.0,2,0.0,Lead (Pb),0.0,Arsenic,0.0,Iron (Fe),0.0
501,1000511,THE WORSHIP CENTER EASTON,FRESNO,FOWLER,93625,80,1.0,3,0.0,Lead (Pb),0.0,Arsenic,0.0,Iron (Fe),0.0
502,1000513,KINGDOM HALL OF JEHOVAH S WITNESSES,FRESNO,FRESNO,93722,100,2.0,1,0.0,Lead (Pb),0.0,Arsenic,0.0,Iron (Fe),0.0
503,1000514,KINGS RIVER PACKING,FRESNO,SANGER,93657,350,1.0,8,1.0,Lead (Pb),0.0,Arsenic,0.0,Iron (Fe),0.0
504,1000515,MICHELSEN PACKAGING,FRESNO,FRESNO,93706,25,1.0,12,5.0,Lead (Pb),0.0,Arsenic,0.0,Iron (Fe),0.0
505,1000517,BLOSSOM TRAIL CAFE,FRESNO,SANGER,93657,78,1.0,8,0.0,Lead (Pb),0.0,Arsenic,0.0,Iron (Fe),0.0
506,1000519,INFANT JESUS OF PRAGUE CHURCH,FRESNO,PRATHER,93651,75,1.0,3,0.0,Lead (Pb),0.0,Arsenic,0.0,Iron (Fe),0.0
507,1000520,"JOSAN AND JOSAN, INC.",FRESNO,SELMA,93662,402,2.0,3,0.0,Lead (Pb),0.0,Arsenic,0.0,Iron (Fe),0.0
508,1000524,AUBERRY SEVENTH DAY ADVENTIST CHURCH,FRESNO,PRATHER,93651,30,1.0,5,1.0,Lead (Pb),0.0,Arsenic,0.0,Iron (Fe),0.0
509,1000525,SIERRA ENDANGERED CAT HAVEN,FRESNO,DUNLAP,93621,25,1.0,4,3.0,Lead (Pb),0.0,Arsenic,0.0,Iron (Fe),0.0
510,1000526,HARRIS RANCH BEEF CO,FRESNO,COALINGA,93210,25,2.0,11,2.0,Lead (Pb),0.0,Arsenic,0.0,Iron (Fe),0.0
511,1000528,BEAR MOUNTAIN PIZZA,FRESNO,SQUAW VALLEY,93675,47,1.0,4,1.0,Lead (Pb),0.0,Arsenic,0.0,Iron (Fe),0.0
512,1000529,NEW HOPE COMMUNITY CHURCH,FRESNO,CLOVIS,93611,204,4.0,3,0.0,Lead (Pb),0.0,Arsenic,0.0,Iron (Fe),0.0
513,1000533,"THREE CROWNS INDUSTRIAL PARK, INC.",FRESNO,FRESNO,93725,25,24.0,22,3.0,Lead (Pb),0.0,Arsenic,0.0,Iron (Fe),0.0
514,1000534,CHOOLJIAN BROS PACKING CO,FRESNO,SANGER,93657,30,1.0,2,0.0,Lead (Pb),0.0,Arsenic,0.0,Iron (Fe),0.0
515,1000540,"BHANDAL, INC",FRESNO,SELMA,93662,25,1.0,3,0.0,Lead (Pb),0.0,Arsenic,0.0,Iron (Fe),0.0
516,1000542,USED PALLET COMPANY,FRESNO,FRESNO,93725,60,1.0,4,0.0,Lead (Pb),0.0,Arsenic,0.0,Iron (Fe),0.0
517,1000544,SHOP-N-QUICK #2,FRESNO,FRESNO,93706,25,1.0,3,0.0,Lead (Pb),0.0,Arsenic,0.0,Iron (Fe),0.0
518,1000545,SELMA EXXON TIGER MART,FRESNO,KINGSBURG,93631,203,1.0,4,0.0,Lead (Pb),0.0,Arsenic,0.0,Iron (Fe),0.0
519,1000546,FCSA #49/ FIVE POINTS,FRESNO,FRESNO,93722,134,6.0,26,8.0,Lead (Pb),0.0,Arsenic,0.0,Iron (Fe),0.0
520,1000548,PG&E AUBERRY SERVICE CENTER,FRESNO,AUBERRY,93602,25,1.0,8,0.0,Lead (Pb),0.0,Arsenic,0.0,Iron (Fe),0.0
521,1000550,FCSA #44D/MONTE VERDI,FRESNO,FRESNO,93722,344,123.0,19,6.0,Lead (Pb),0.0,Arsenic,0.0,Iron (Fe),0.0
522,1000551,FCSA #43/RAISIN CITY,FRESNO,FRESNO,93722,190,1.0,24,6.0,Lead (Pb),0.0,Arsenic,0.0,Iron (Fe),0.0
523,1000552,FRESNO SOUTH JEHOVAH WITNESSES,FRESNO,FRESNO,93725,170,1.0,2,0.0,Lead (Pb),0.0,Arsenic,0.0,Iron (Fe),0.0
524,1000553,TRINITY PRESBYTERIAN CHURCH,FRESNO,CLOVIS,93619,450,3.0,3,0.0,Lead (Pb),0.0,Arsenic,0.0,Iron (Fe),0.0
525,1000554,FCSA #10A/MANSIONETTE ESTATES,FRESNO,FRESNO,93722,81,29.0,37,8.0,Lead (Pb),0.0,Arsenic,0.0,Iron (Fe),0.0
526,1000555,FCSA #44C/RIVERVIEW ESTATES,FRESNO,FRESNO,93722,34,12.0,29,6.0,Lead (Pb),0.0,Arsenic,0.0,Iron (Fe),0.0
527,1000557,HOLLAND PARK WEST,FRESNO,FRESNO,93723,200,3.0,7,1.0,Lead (Pb),0.0,Arsenic,0.0,Iron (Fe),0.0
528,1000560,CENTRAL CA ALMOND GROWERS ASSN,FRESNO,KERMAN,93630,40,7.0,2,0.0,Lead (Pb),0.0,Arsenic,0.0,Iron (Fe),0.0
529,1000562,SOUTHWEST TRANSPORTATION AGENCY,FRESNO,CARUTHERS,93609,25,1.0,6,0.0,Lead (Pb),0.0,Arsenic,0.0,Iron (Fe),0.0
530,1000564,WONDERFUL PISTACHIOS & ALMONDS-EL DORADO,FRESNO,LOST HILLS,93249,86,2.0,6,0.0,Lead (Pb),0.0,Arsenic,0.0,Iron (Fe),0.0
531,1000565,USDA AGRICULTURAL RESEARCH SERVICE,FRESNO,PARLIER,93648,130,1.0,13,1.0,Lead (Pb),0.0,Arsenic,0.0,Iron (Fe),0.0
532,1000566,FOSTER FARMS - CEDAR HATCHERY,FRESNO,LIVINGSTON,95334,35,5.0,2,0.0,Lead (Pb),0.0,Arsenic,0.0,Iron (Fe),0.0
533,1000568,GURDWARA GUR NANAK PARKASH - FRESNO,FRESNO,FRESNO,93725,150,1.0,2,0.0,Lead (Pb),0.0,Arsenic,0.0,Iron (Fe),0.0
534,1000569,HIGH SIERRA CAMP,FRESNO,MEMPHIS,38120,25,1.0,2,1.0,Lead (Pb),0.0,Arsenic,0.0,Iron (Fe),0.0
535,1000570,JUVENILE JUSTICE CAMPUS,FRESNO,FRESNO,93722,400,15.0,26,9.0,Lead (Pb),0.0,Arsenic,0.0,Iron (Fe),0.0
536,1000571,GRANDE HALL AT THE GARDENS,FRESNO,FRESNO,93722,302,2.0,3,0.0,Lead (Pb),0.0,Arsenic,0.0,Iron (Fe),0.0
537,1000573,MOUNTAIN VALLEY COMMUNITY CHURCH,FRESNO,SQUAW VALLEY,93675,150,2.0,4,0.0,Lead (Pb),0.0,Arsenic,0.0,Iron (Fe),0.0
538,1000575,POINDEXTER NUT COMPANY,FRESNO,SELMA,93662,50,6.0,8,3.0,Lead (Pb),0.0,Arsenic,0.0,Iron (Fe),0.0
539,1000576,LONE STAR DEHYDRATOR,FRESNO,SANGER,93657,175,2.0,8,1.0,Lead (Pb),0.0,Arsenic,0.0,Iron (Fe),0.0
540,1000577,DUNLAP LEADERSHIP ACADEMY,FRESNO,REEDLEY,93654,78,1.0,16,4.0,Lead (Pb),0.0,Arsenic,1.0,Iron (Fe),0.0
541,1000578,WEST TECH INDUSTRIAL PARK,FRESNO,KINGSBURG,93631,42,16.0,7,0.0,Lead (Pb),0.0,Arsenic,0.0,Iron (Fe),0.0
542,1000579,OAK KNOLL PROFESSIONAL CTR,FRESNO,HOLLISTER,95023,25,4.0,2,0.0,Lead (Pb),0.0,Arsenic,0.0,Iron (Fe),0.0
543,1000580,CAMPOS BROS. FARMS,FRESNO,CARUTHERS,93609,150,1.0,52,24.0,Lead (Pb),0.0,Arsenic,3.0,Iron (Fe),0.0
544,1000583,SEQUOIA BIBLE FELLOWSHIP,FRESNO,SQUAW VALLEY,93675,175,1.0,3,0.0,Lead (Pb),0.0,Arsenic,0.0,Iron (Fe),0.0
545,1000584,TRUE ORGANIC PRODUCTS,FRESNO,SPRECKLES,93962,40,1.0,33,25.0,Lead (Pb),0.0,Arsenic,4.0,Iron (Fe),0.0
546,1000585,MURRIETA/HERNANDEZ FARMS,FRESNO,KERMAN,93630,29,10.0,27,6.0,Lead (Pb),0.0,Arsenic,0.0,Iron (Fe),0.0
547,1000586,SJRP COKE HALLOWELL CENTER,FRESNO,FRESNO,93730,39,3.0,2,2.0,Lead (Pb),0.0,Arsenic,0.0,Iron (Fe),0.0
548,1000587,THE POINT AT SHAVER LAKE,FRESNO,COALINGA,93210,28,11.0,3,3.0,Lead (Pb),0.0,Arsenic,0.0,Iron (Fe),0.0
549,1000588,PANOCHE RANCH - FRANK LOGOLUSO FARMS,FRESNO,MADERA,93637,300,4.0,3,0.0,Lead (Pb),0.0,Arsenic,0.0,Iron (Fe),0.0
550,1000589,AUBERRY BRANCH LIBRARY,FRESNO,FRESNO,93721,100,1.0,3,0.0,Lead (Pb),0.0,Arsenic,0.0,Iron (Fe),0.0
551,1000590,FCOE SCOUT ISLAND,FRESNO,FRESNO,93721,104,1.0,1,0.0,Lead (Pb),0.0,Arsenic,0.0,Iron (Fe),0.0
552,1000591,SUMNER PECK RANCH WINERY & FRUIT STAND,FRESNO,FRIANT,93626,100,2.0,6,1.0,Lead (Pb),0.0,Arsenic,0.0,Iron (Fe),0.0
553,1000592,SHANT BHAVAN PUNJABI FUNERAL HOME,FRESNO,VISALIA,93291,250,1.0,68,11.0,Lead (Pb),0.0,Arsenic,0.0,Iron (Fe),0.0
554,1000593,VIE-DEL COMPANY,FRESNO,FRESNO,93745,60,2.0,2,0.0,Lead (Pb),0.0,Arsenic,0.0,Iron (Fe),0.0
555,1000596,SCE MID CANYON MACHINE SHOP,FRESNO,BIG CREEK,93605,28,1.0,1,1.0,Lead (Pb),0.0,Arsenic,0.0,Iron (Fe),0.0
556,1000600,CANYON FEED & SUPPLY,FRESNO,CLOVIS,93611,25,3.0,3,1.0,Lead (Pb),0.0,Arsenic,0.0,Iron (Fe),0.0
557,1000601,SCHOOL HOUSE RESTAURANT AND TAVERN,FRESNO,REEDLEY,93654,252,1.0,3,0.0,Lead (Pb),0.0,Arsenic,0.0,Iron (Fe),0.0
558,1000602,BAKER COMMODITIES INC.,FRESNO,KERMAN,93630,60,6.0,38,30.0,Lead (Pb),0.0,Arsenic,4.0,Iron (Fe),0.0
559,1000607,BLACKBURN FAMILY IRREVOCABLE TRUST,FRESNO,LOS BANOS,93635,83,3.0,8,1.0,Lead (Pb),0.0,Arsenic,0.0,Iron (Fe),0.0
560,1000608,GERAWAN FRUIT PACKING,FRESNO,REEDLEY,93654,298,1.0,64,11.0,Lead (Pb),0.0,Arsenic,0.0,Iron (Fe),0.0
561,1000609,AUBERRY LDS CHURCH,FRESNO,RICHMOND,94804-6403,192,1.0,5,1.0,Lead (Pb),0.0,Arsenic,0.0,Iron (Fe),0.0
562,1000611,KEN'S CLOTHING AND GIFTS,FRESNO,FRESNO,93711,45,2.0,2,0.0,Lead (Pb),0.0,Arsenic,0.0,Iron (Fe),0.0
563,1000614,QUAIL LAKE COMMUNITY CHURCH,FRESNO,SANGER,93657,125,1.0,5,1.0,Lead (Pb),0.0,Arsenic,0.0,Iron (Fe),0.0
564,1000616,NEW LIFE COMMUNITY CHURCH,FRESNO,FRESNO,93706,0,1.0,1,1.0,Lead (Pb),0.0,Arsenic,0.0,Iron (Fe),0.0
565,1000620,DOLLAR GENERAL STORE  #15320,FRESNO,GOODLETTSVILLE,37072,250,1.0,2,1.0,Lead (Pb),0.0,Arsenic,0.0,Iron (Fe),0.0
566,1000621,POWELL'S PROPERTIES,FRESNO,SHAVER LAKE,93664,156,3.0,3,1.0,Lead (Pb),0.0,Arsenic,0.0,Iron (Fe),0.0
567,1000625,DINO MART 1,FRESNO,HANFORD,93230,25,4.0,4,2.0,Lead (Pb),0.0,Arsenic,0.0,Iron (Fe),0.0
568,1000626,EASTON BRANCH LIBRARY,FRESNO,FRESNO,93721,25,1.0,1,1.0,Lead (Pb),0.0,Arsenic,0.0,Iron (Fe),0.0
569,1000627,ZONNEVELD DAIRY - CERINI,FRESNO,LATON,93242,48,17.0,46,35.0,Lead (Pb),0.0,Arsenic,4.0,Iron (Fe),0.0
570,1000629,KINGS RIVER WINERY,FRESNO,SANGER,93657,50,2.0,1,1.0,Lead (Pb),0.0,Arsenic,0.0,Iron (Fe),0.0
571,1000630,MORAVIA WINES,FRESNO,FRESNO,93723,50,2.0,1,1.0,Lead (Pb),0.0,Arsenic,0.0,Iron (Fe),0.0
572,1000632,VULCAN MATERIALS COMPANY - FRIANT,FRESNO,GLENDALE,91203,31,1.0,6,2.0,Lead (Pb),0.0,Arsenic,0.0,Iron (Fe),0.0
573,1000634,SUPER DRIVE IN,FRESNO,LATON,93242,50,1.0,2,1.0,Lead (Pb),0.0,Arsenic,0.0,Iron (Fe),0.0
574,1000635,SELMA QUICK STOP,FRESNO,SELMA,93662,50,1.0,1,1.0,Lead (Pb),0.0,Arsenic,0.0,Iron (Fe),0.0
575,1000637,JEHOVAH'S WITNESSES CHURCH,FRESNO,REEDLEY,93654,275,1.0,1,1.0,Lead (Pb),0.0,Arsenic,0.0,Iron (Fe),0.0
576,1000639,CALWEST RAIN - KERMAN,FRESNO,KERMAN,93630,90,1.0,7,4.0,Lead (Pb),0.0,Arsenic,0.0,Iron (Fe),1.0
577,1000641,LARRY A SHEHADEY DAIRY,FRESNO,FRESNO,93715,95,2.0,4,2.0,Lead (Pb),0.0,Arsenic,0.0,Iron (Fe),0.0
578,1000644,IMMANUEL SPORTS COMPLEX,FRESNO,REEDLEY,93654,25,1.0,2,1.0,Lead (Pb),0.0,Arsenic,0.0,Iron (Fe),0.0
579,1009006,PAPPAS & CO (COALINGA),FRESNO,FRESNO,93711,18,1.0,13,7.0,Lead (Pb),0.0,Arsenic,0.0,Iron (Fe),0.0
580,1009020,FIVE POINTS RANCH,FRESNO,FIVE POINTS,93624,100,32.0,12,8.0,Lead (Pb),0.0,Arsenic,0.0,Iron (Fe),0.0
581,1009023,BRITZ/COLUSA,FRESNO,FRESNO,93790,85,2.0,34,18.0,Lead (Pb),0.0,Arsenic,0.0,Iron (Fe),0.0
582,1009027,HARRIS FARMS HEADQUARTERS,FRESNO,COALINGA,93210,300,5.0,15,7.0,Lead (Pb),0.0,Arsenic,0.0,Iron (Fe),0.0
583,1009028,HARRIS FARMS SOUTH #101-144,FRESNO,COALINGA,93210,160,40.0,13,7.0,Lead (Pb),0.0,Arsenic,0.0,Iron (Fe),0.0
584,1009035,PILIBOS BROTHERS RANCH,FRESNO,MENDOTA,93640,25,15.0,8,4.0,Lead (Pb),0.0,Arsenic,0.0,Iron (Fe),0.0
585,1009039,PAPPAS & CO (MENDOTA),FRESNO,FRESNO,93711,25,12.0,15,9.0,Lead (Pb),1.0,Arsenic,0.0,Iron (Fe),1.0
586,1009051,"CANTUA CREEK VINEYARDS, IV, LLC.",FRESNO,CERES,95307,50,15.0,25,24.0,Lead (Pb),0.0,Arsenic,4.0,Iron (Fe),0.0
587,1009078,HARRIS FEEDING COMPANY,FRESNO,COALINGA,93210,225,3.0,34,16.0,Lead (Pb),0.0,Arsenic,0.0,Iron (Fe),2.0
588,1009091,"OLAM SPICES AND VEGETABLES, INC.",FRESNO,FIREBAUGH,95340,275,1.0,105,76.0,Lead (Pb),0.0,Arsenic,10.0,Iron (Fe),1.0
589,1009111,SCE/BIG CREEK POWERHOUSE #1,FRESNO,BIG CREEK,93605,126,4.0,9,8.0,Lead (Pb),0.0,Arsenic,0.0,Iron (Fe),0.0
590,1009120,RAU DAIRY,FRESNO,CARUTHERS,93609,90,23.0,40,8.0,Lead (Pb),0.0,Arsenic,0.0,Iron (Fe),0.0
591,1009131,COIT RANCH CORPORATION,FRESNO,MENDOTA,93640,25,8.0,10,3.0,Lead (Pb),0.0,Arsenic,0.0,Iron (Fe),0.0
592,1009147,FARMING D,FRESNO,FIVE POINTS,93624,110,9.0,15,9.0,Lead (Pb),0.0,Arsenic,0.0,Iron (Fe),0.0
593,1009172,VAQUERO FARMS,FRESNO,FIREBAUGH,93622,70,17.0,20,8.0,Lead (Pb),0.0,Arsenic,0.0,Iron (Fe),0.0
594,1009179,BRITZ/FIVE POINT SYSTEM,FRESNO,FRESNO,93790,76,10.0,14,8.0,Lead (Pb),0.0,Arsenic,0.0,Iron (Fe),0.0
595,1009214,WESTSIDE HARVESTING,FRESNO,CANTUA CREEK,93608,25,24.0,13,9.0,Lead (Pb),0.0,Arsenic,0.0,Iron (Fe),0.0
596,1009222,TERRA LINDA FARMS,FRESNO,RIVERDALE,93656,40,11.0,17,9.0,Lead (Pb),0.0,Arsenic,0.0,Iron (Fe),1.0
597,1009232,SUMNER PECK RANCH,FRESNO,EL NIDO,95317,42,19.0,14,9.0,Lead (Pb),0.0,Arsenic,0.0,Iron (Fe),0.0
598,1009258,SAN ANDREAS FARMS,FRESNO, ,,50,7.0,15,9.0,Lead (Pb),0.0,Arsenic,0.0,Iron (Fe),0.0
599,1009281,HAMMONDS RANCH,FRESNO,FIREBAUGH,93622,50,16.0,18,9.0,Lead (Pb),0.0,Arsenic,0.0,Iron (Fe),0.0
600,1010001,BAKMAN WATER COMPANY,FRESNO,FRESNO,93747,16756,2505.0,472,46.0,Lead (Pb),0.0,Arsenic,0.0,Iron (Fe),2.0
601,1010003,CITY OF CLOVIS,FRESNO,CLOVIS,93611,114650,32571.0,722,255.0,Lead (Pb),1.0,Arsenic,0.0,Iron (Fe),2.0
602,1010004,COALINGA-CITY,FRESNO,SAN JUAN CAPISTRANO,92675,16791,14.0,111,72.0,Lead (Pb),0.0,Arsenic,0.0,Iron (Fe),0.0
603,1010005,FIREBAUGH CITY,FRESNO,FIREBAUGH,93622,7619,159.0,1726,376.0,Lead (Pb),0.0,Arsenic,12.0,Iron (Fe),26.0
604,1010006,CITY OF FOWLER,FRESNO,LEMOORE,93246,5801,1784.0,29,13.0,Lead (Pb),0.0,Arsenic,0.0,Iron (Fe),0.0
605,1010007,CITY OF FRESNO,FRESNO,FRESNO,93703,537659,134136.0,20433,2301.0,Lead (Pb),0.0,Arsenic,0.0,Iron (Fe),0.0
606,1010013,"HUME LAKE CHRISTIAN CAMPS, INC",FRESNO,HUME,93628,2732,3.0,95,81.0,Lead (Pb),0.0,Arsenic,0.0,Iron (Fe),2.0
607,1010017,FCWWD #41/SHAVER LAKE,FRESNO,FRESNO,93722,3079,933.0,2436,846.0,Lead (Pb),63.0,Arsenic,0.0,Iron (Fe),54.0
608,1010018,"KERMAN, CITY OF",FRESNO,KERMAN,93630,14349,69.0,67,13.0,Lead (Pb),0.0,Arsenic,0.0,Iron (Fe),1.0
609,1010019,"KINGSBURG, CITY OF",FRESNO,KINGSBURG,93631,11504,3704.0,64,21.0,Lead (Pb),0.0,Arsenic,0.0,Iron (Fe),0.0
610,1010021,"MENDOTA, CITY OF",FRESNO,PARLIER,93648,11104,1911.0,188,26.0,Lead (Pb),2.0,Arsenic,0.0,Iron (Fe),2.0
611,1010023,CITY OF ORANGE COVE,FRESNO,ORANGE COVE,93646,9780,117.0,32,14.0,Lead (Pb),0.0,Arsenic,0.0,Iron (Fe),0.0
612,1010024,CWS - SELMA,FRESNO,SAN JOSE,95112-4508,25501,6200.0,95,32.0,Lead (Pb),0.0,Arsenic,0.0,Iron (Fe),0.0
613,1010025,CITY OF PARLIER,FRESNO,PARLIER,93648,15250,2580.0,35,14.0,Lead (Pb),0.0,Arsenic,0.0,Iron (Fe),0.0
614,1010026,PINEDALE COUNTY WATER DISTRICT,FRESNO,PINEDALE,93650,16735,2119.0,192,51.0,Lead (Pb),3.0,Arsenic,0.0,Iron (Fe),0.0
615,1010027,"REEDLEY, CITY OF",FRESNO,REEDLEY,93654,24842,67.0,55,15.0,Lead (Pb),0.0,Arsenic,0.0,Iron (Fe),0.0
616,1010028,RIVERDALE PUBLIC UTILITY DISTRICT,FRESNO,RIVERDALE,93656,3145,7.0,56,40.0,Lead (Pb),0.0,Arsenic,0.0,Iron (Fe),0.0
617,1010029,CITY OF SANGER,FRESNO,SANGER,93657,25664,6210.0,1338,36.0,Lead (Pb),0.0,Arsenic,0.0,Iron (Fe),0.0
618,1010030,TRANQUILLITY IRRIGATION DISTRICT,FRESNO,TRANQUILLITY,93668,897,7.0,102,72.0,Lead (Pb),0.0,Arsenic,0.0,Iron (Fe),6.0
619,1010034,"SAN JOAQUIN, CITY OF",FRESNO,SAN JOAQUIN,93660,4060,730.0,270,94.0,Lead (Pb),0.0,Arsenic,0.0,Iron (Fe),10.0
620,1010035,DEL REY COMMUNITY SERV DIST,FRESNO,DEL REY,93616,1500,10.0,63,30.0,Lead (Pb),0.0,Arsenic,0.0,Iron (Fe),0.0
621,1010039,CARUTHERS COMM SERV DIST,FRESNO,CARUTHERS,93609,2503,6.0,144,96.0,Lead (Pb),0.0,Arsenic,14.0,Iron (Fe),0.0
622,1010042,MALAGA COUNTY WATER DISTRICT,FRESNO,FRESNO,93725,1200,510.0,441,48.0,Lead (Pb),0.0,Arsenic,0.0,Iron (Fe),0.0
623,1010044,"HURON, CITY OF",FRESNO,HURON,93234,7306,7.0,34,22.0,Lead (Pb),0.0,Arsenic,0.0,Iron (Fe),0.0
624,1010049,BIOLA COMMUNITY SERVICES DIST,FRESNO,BIOLA,93606,1623,300.0,44,8.0,Lead (Pb),0.0,Arsenic,0.0,Iron (Fe),0.0
625,1010051,FCWWD #18/FRIANT,FRESNO,FRIANT,93626,800,3.0,20,12.0,Lead (Pb),0.0,Arsenic,0.0,Iron (Fe),0.0
626,1010052,SIERRA CEDARS CSD,FRESNO,CLOVIS,93611,875,225.0,206,150.0,Lead (Pb),0.0,Arsenic,0.0,Iron (Fe),2.0
627,1010053,SHAVER LAKE HEIGHTS MWC,FRESNO,SANTA PAULA,93060,719,3.0,21,12.0,Lead (Pb),3.0,Arsenic,0.0,Iron (Fe),1.0
628,1010055,FCSA #47/QUAIL LAKE ESTATES,FRESNO,FRESNO,93722,1982,1.0,23,4.0,Lead (Pb),0.0,Arsenic,0.0,Iron (Fe),0.0
629,1010057,FRESNO CITY WASTEWATER PLANT,FRESNO,FRESNO,93706,165,18.0,81,4.0,Lead (Pb),0.0,Arsenic,0.0,Iron (Fe),0.0
630,1010060,FRESNO POLICE TRAINING FACILITY,FRESNO,FRESNO,93706,264,1.0,2,0.0,Lead (Pb),0.0,Arsenic,0.0,Iron (Fe),0.0
631,1010062,FCWWD #18/MIRA BELLA,FRESNO,FRIANT,93626,165,1.0,18,16.0,Lead (Pb),0.0,Arsenic,0.0,Iron (Fe),3.0
632,1010339,CALIFORNIA STATE UNIVERSITY FRESNO,FRESNO,FRESNO,93740,41000,158.0,43,5.0,Lead (Pb),0.0,Arsenic,0.0,Iron (Fe),0.0
633,1010501,NPS-GRANT GROVE,FRESNO,THREE RIVERS,93271,2950,25.0,7,4.0,Lead (Pb),0.0,Arsenic,0.0,Iron (Fe),0.0
634,1010800,CAL FIRE - MIRAMONTE CONSERVATION CAMP,FRESNO,MIRAMONTE,93641,100,1.0,34,20.0,Lead (Pb),0.0,Arsenic,0.0,Iron (Fe),2.0
635,1100203,ARTOIS COMMUNITY S.D.,GLENN,ARTOIS,95913,198,52.0,14,4.0,Lead (Pb),0.0,Arsenic,0.0,Iron (Fe),0.0
636,1100237,WILLOWS MOBILE HOME COMMUNITY & RV PARK,GLENN,SACRAMENTO,95835,150,87.0,22,3.0,Lead (Pb),0.0,Arsenic,0.0,Iron (Fe),0.0
637,1100254,VOYLES TRAILER PARK,GLENN,RED BLUFF,96080,25,15.0,12,1.0,Lead (Pb),0.0,Arsenic,0.0,Iron (Fe),0.0
638,1100404,DEL ORO WC - BLACK BUTTE DISTRICT,GLENN,CHICO,95927,284,86.0,8,2.0,Lead (Pb),0.0,Arsenic,0.0,Iron (Fe),0.0
639,1100405,BLACK BUTTE MOBILE H.P.,GLENN,ORLAND,95963,148,49.0,5,1.0,Lead (Pb),0.0,Arsenic,0.0,Iron (Fe),0.0
640,1100413,COUNTRY LEISURE MOBILE ESTATES,GLENN,RIO VISTA,94571,40,33.0,6,1.0,Lead (Pb),0.0,Arsenic,0.0,Iron (Fe),0.0
641,1100436,ORLAND OAKS MHP,GLENN,SACRAMENTO,95835-2808,186,83.0,6,2.0,Lead (Pb),0.0,Arsenic,0.0,Iron (Fe),0.0
642,1100444,ORLAND ESTATES MOBILE H.P.,GLENN,SANTA CLARITA,91380,280,74.0,13,2.0,Lead (Pb),0.0,Arsenic,0.0,Iron (Fe),0.0
643,1100445,ORLAND MOBILE H.P.,GLENN,EL DORADO HILLS,95762,178,54.0,3,1.0,Lead (Pb),0.0,Arsenic,0.0,Iron (Fe),0.0
644,1100452,SHADY OAKS TRAILER PARK,GLENN,ROSEVILLE,95747,57,58.0,4,1.0,Lead (Pb),0.0,Arsenic,0.0,Iron (Fe),0.0
645,1100616,ELK CREEK COMMUNITY S.D.,GLENN,ELK CREEK,95939,191,90.0,16,6.0,Lead (Pb),0.0,Arsenic,0.0,Iron (Fe),0.0
646,1100711,BUTTE CITY COMMUNITY S.D.,GLENN,BUTTE CITY,95920,75,48.0,5,1.0,Lead (Pb),0.0,Arsenic,0.0,Iron (Fe),0.0
647,1110001,CITY OF ORLAND,GLENN,ORLAND,95963,7932,2559.0,27,7.0,Lead (Pb),0.0,Arsenic,0.0,Iron (Fe),0.0
648,1110002,CAL-WATER SERVICE CO.-HAMILTON CITY,GLENN,SAN JOSE,95112-4508,2580,577.0,37,7.0,Lead (Pb),0.0,Arsenic,0.0,Iron (Fe),0.0
649,1110003,CAL-WATER SERVICE CO.-WILLOWS,GLENN,CHICO,95928,7140,2325.0,229,13.0,Lead (Pb),0.0,Arsenic,0.0,Iron (Fe),0.0
650,1200501,ALDERPOINT COUNTY WATER,HUMBOLDT,ALDERPOINT,95511,219,79.0,3,1.0,Lead (Pb),0.0,Arsenic,0.0,Iron (Fe),0.0
651,1200518,RIVERSIDE CSD,HUMBOLDT, , ,293,99.0,5,3.0,Lead (Pb),0.0,Arsenic,0.0,Iron (Fe),0.0
652,1200522,WHITETHORN ELEMENTARY SCHOOL,HUMBOLDT,MIRANDA,95553,120,1.0,2,1.0,Lead (Pb),0.0,Arsenic,0.0,Iron (Fe),0.0
653,1200538,MYERS FLAT M.W.S. INC.,HUMBOLDT,MYERS FLAT,95554,400,102.0,3,2.0,Lead (Pb),0.0,Arsenic,0.0,Iron (Fe),0.0
654,1200541,PHILLIPSVILLE C.S.D.,HUMBOLDT,PHILLIPSVILLE,95559,300,66.0,4,4.0,Lead (Pb),0.0,Arsenic,0.0,Iron (Fe),0.0
655,1200544,REDCREST WATER WORKS,HUMBOLDT,REDCREST,95569,100,35.0,2,2.0,Lead (Pb),0.0,Arsenic,0.0,Iron (Fe),0.0
656,1200547,MILL CREEK M.W.C.,HUMBOLDT,FORTUNA,95540,65,36.0,3,2.0,Lead (Pb),0.0,Arsenic,0.0,Iron (Fe),0.0
657,1200553,WEOTT C.S.D.,HUMBOLDT,WEOTT,95571,364,128.0,4,4.0,Lead (Pb),0.0,Arsenic,0.0,Iron (Fe),0.0
658,1200566,ORLEANS MUTUAL WATER CO.,HUMBOLDT,ORLEANS,95556,85,1.0,1,1.0,Lead (Pb),0.0,Arsenic,0.0,Iron (Fe),0.0
659,1200579,M.F. MITCHELL & COMPANY,HUMBOLDT,CARLOTTA,95528,33,1.0,1,1.0,Lead (Pb),0.0,Arsenic,0.0,Iron (Fe),0.0
660,1200587,BRICELAND C.S.D.,HUMBOLDT,REDWAY,95560,75,26.0,2,2.0,Lead (Pb),0.0,Arsenic,0.0,Iron (Fe),0.0
661,1200588,SEAWOOD ESTATES MUTUAL WATER COMPANY,HUMBOLDT,REDDING,96002,60,1.0,5,5.0,Lead (Pb),0.0,Arsenic,0.0,Iron (Fe),0.0
662,1200590,MOONSTONE HEIGHTS MWA,HUMBOLDT,TRINIDAD,95570,31,14.0,3,1.0,Lead (Pb),0.0,Arsenic,0.0,Iron (Fe),0.0
663,1200591,BIG LAGOON PARK WATER CO.,HUMBOLDT,EUREKA,95501,70,76.0,2,2.0,Lead (Pb),0.0,Arsenic,0.0,Iron (Fe),0.0
664,1200592,BIG LAGOON CSD,HUMBOLDT,TRINIDAD,95570,109,1.0,14,10.0,Lead (Pb),0.0,Arsenic,0.0,Iron (Fe),0.0
665,1200643,BEACH CREEK MOBILE HOME PARK,HUMBOLDT,REDDING,96002,67,24.0,6,2.0,Lead (Pb),0.0,Arsenic,0.0,Iron (Fe),0.0
666,1200671,BENBOW-DEL ORO W.C.,HUMBOLDT,CHICO,95927,150,135.0,8,6.0,Lead (Pb),0.0,Arsenic,0.0,Iron (Fe),0.0
667,1200684,MATTOLE ELEMENTARY SCHOOL,HUMBOLDT,PETROLIA,95558,100,1.0,1,1.0,Lead (Pb),0.0,Arsenic,0.0,Iron (Fe),0.0
668,1200689,HONEYDEW COUNTRY STORE,HUMBOLDT,HONEYDEW,95545,75,3.0,2,2.0,Lead (Pb),0.0,Arsenic,0.0,Iron (Fe),0.0
669,1200698,MOBILE ESTATES  FN,HUMBOLDT,PALOS VERDES PENINSULA,90274,120,66.0,1,0.0,Lead (Pb),0.0,Arsenic,0.0,Iron (Fe),0.0
670,1200701,ORICK C.S.D.,HUMBOLDT,ORICK,95555,450,5.0,2,2.0,Lead (Pb),0.0,Arsenic,0.0,Iron (Fe),0.0
671,1200706,TRINIDAD EXTENDED STAY RV,HUMBOLDT,REDDING,96002,130,72.0,9,5.0,Lead (Pb),0.0,Arsenic,0.0,Iron (Fe),0.0
672,1200707,MIRANDA C.S.D.,HUMBOLDT,MIRANDA,95553,600,142.0,2,2.0,Lead (Pb),0.0,Arsenic,0.0,Iron (Fe),0.0
673,1200710,VIEW CREST LODGE,HUMBOLDT,TRINIDAD,95570,60,30.0,2,0.0,Lead (Pb),0.0,Arsenic,0.0,Iron (Fe),0.0
674,1200711,YELLOW ROSE,HUMBOLDT,FERNDALE,95536,30,1.0,2,2.0,Lead (Pb),0.0,Arsenic,0.0,Iron (Fe),0.0
675,1200715,GREEN DIAMOND RESOURCE COMPANY - KORBEL,HUMBOLDT,KORBEL,95550,250,1.0,2,2.0,Lead (Pb),0.0,Arsenic,0.0,Iron (Fe),0.0
676,1200718,WADDINGTON W.W.,HUMBOLDT,FERNDALE,95536,75,24.0,4,2.0,Lead (Pb),0.0,Arsenic,0.0,Iron (Fe),0.0
677,1200728,SOUNDS OF THE SEAS W. S.,HUMBOLDT,TRINIDAD,95570,104,14.0,1,0.0,Lead (Pb),0.0,Arsenic,0.0,Iron (Fe),0.0
678,1200776,A W WAY - HUMBOLDT CO. PARKS,HUMBOLDT,EUREKA,95501,300,1.0,1,0.0,Lead (Pb),0.0,Arsenic,0.0,Iron (Fe),0.0
679,1206004,PALMER CREEK CSD,HUMBOLDT,FORTUNA,95540,320,131.0,5,4.0,Lead (Pb),0.0,Arsenic,0.0,Iron (Fe),1.0
680,1206005,BIG LAGOON - HUMBOLDT CO. PARKS,HUMBOLDT,EUREKA,95501,300,6.0,5,2.0,Lead (Pb),0.0,Arsenic,0.0,Iron (Fe),0.0
681,1206012,WHITETHORN CONSTRUCTION,HUMBOLDT,WHITETHORN,95589,45,15.0,1,1.0,Lead (Pb),0.0,Arsenic,0.0,Iron (Fe),0.0
682,1206013,ELK COUNTRY RV RESORT AND CAMPGROUND,HUMBOLDT,SPARKS,89435,51,30.0,2,2.0,Lead (Pb),0.0,Arsenic,0.0,Iron (Fe),0.0
683,1210001,"ARCATA, CITY OF",HUMBOLDT,ARCATA,95521,19077,70.0,4,4.0,Lead (Pb),0.0,Arsenic,0.0,Iron (Fe),0.0
684,1210006,"FORTUNA, CITY OF",HUMBOLDT,FORTUNA,95540,11649,4377.0,6,2.0,Lead (Pb),0.0,Arsenic,0.0,Iron (Fe),0.0
685,1210007,DEL ORO WATER CO-FERNDALE,HUMBOLDT,CHICO,95927,1998,747.0,6,0.0,Lead (Pb),0.0,Arsenic,0.0,Iron (Fe),0.0
686,1210008,GARBERVILLE SANITARY DISTRICT,HUMBOLDT,GARBERVILLE,95542,1500,442.0,9,5.0,Lead (Pb),0.0,Arsenic,0.0,Iron (Fe),0.0
687,1210009,HUMBOLDT C.S.D.,HUMBOLDT,CUTTEN,95534,24885,263.0,16,12.0,Lead (Pb),0.0,Arsenic,0.0,Iron (Fe),0.0
688,1210010,SCOTIA CSD,HUMBOLDT,SCOTIA,95565,850,308.0,3,3.0,Lead (Pb),0.0,Arsenic,0.0,Iron (Fe),0.0
689,1210011,REDWAY C.S.D.,HUMBOLDT,REDWAY,95560,1500,687.0,4,4.0,Lead (Pb),0.0,Arsenic,0.0,Iron (Fe),0.0
690,1210012,"RIO DELL, CITY OF",HUMBOLDT,RIO DELL,95562,3174,1233.0,4,4.0,Lead (Pb),0.0,Arsenic,0.0,Iron (Fe),0.0
691,1210015,WILLOW CREEK C.S.D.,HUMBOLDT,WILLOW CREEK,95573,1710,867.0,2,2.0,Lead (Pb),0.0,Arsenic,0.0,Iron (Fe),0.0
692,1210018,"TRINIDAD, CITY OF",HUMBOLDT,TRINIDAD,95570,1000,325.0,3,2.0,Lead (Pb),0.0,Arsenic,0.0,Iron (Fe),0.0
693,1210019,HYDESVILLE CO. W.D.,HUMBOLDT,HYDESVILLE,95547,1409,424.0,5,3.0,Lead (Pb),0.0,Arsenic,0.0,Iron (Fe),0.0
694,1210022,RESORT IMPROVEMENT DISTRICT #1,HUMBOLDT,WHITETHORN,95589,1500,620.0,77,46.0,Lead (Pb),0.0,Arsenic,0.0,Iron (Fe),4.0
695,1210023,LOLETA C.S.D.,HUMBOLDT,LOLETA,95551,750,1.0,4,3.0,Lead (Pb),0.0,Arsenic,0.0,Iron (Fe),0.0
696,1210024,WESTHAVEN C.S.D.,HUMBOLDT,TRINIDAD,95570,490,2.0,18,6.0,Lead (Pb),0.0,Arsenic,0.0,Iron (Fe),0.0
697,1210314,HIDDEN SPRINGS CG-STATE PARKS,HUMBOLDT,WEOTT,95571,350,1.0,1,1.0,Lead (Pb),0.0,Arsenic,0.0,Iron (Fe),0.0
698,1210319,PATRICK'S POINT SP-STATE PARKS,HUMBOLDT,CRESCENT CITY,95531,1000,1.0,3,0.0,Lead (Pb),0.0,Arsenic,0.0,Iron (Fe),0.0
699,1210321,STONE LAGOON-STATE PARKS,HUMBOLDT,CRESCENT CITY,95531,400,1.0,3,0.0,Lead (Pb),0.0,Arsenic,0.0,Iron (Fe),0.0
700,1210800,CAL FIRE-EEL RIVER CONSERVATION CAMP,HUMBOLDT,WEOTT,95571,180,1.0,3,2.0,Lead (Pb),0.0,Arsenic,0.0,Iron (Fe),0.0
701,1210801,CAL FIRE-HIGH ROCK CONSERVATION CAMP,HUMBOLDT,WEOTT,95571,130,1.0,4,3.0,Lead (Pb),0.0,Arsenic,0.0,Iron (Fe),0.0
702,1300018,GATEWAY,IMPERIAL,EL CENTRO,92243,1800,22.0,5,2.0,Lead (Pb),0.0,Arsenic,0.0,Iron (Fe),0.0
703,1300517,U.S. GYPSUM CO,IMPERIAL,EL CENTRO,92244,200,1.0,15,3.0,Lead (Pb),0.0,Arsenic,0.0,Iron (Fe),0.0
704,1300549,IMPERIAL VALLEY COLLEGE,IMPERIAL,IMPERIAL,92251,7900,1.0,6,5.0,Lead (Pb),0.0,Arsenic,0.0,Iron (Fe),1.0
705,1300553,MAGNOLIA UNION SCHOOL,IMPERIAL,BRAWLEY,92227,142,1.0,5,2.0,Lead (Pb),0.0,Arsenic,0.0,Iron (Fe),0.0
706,1300554,MEADOWS UNION ELEMENTARY SCHOOL,IMPERIAL,EL CENTRO,92243,550,1.0,6,3.0,Lead (Pb),0.0,Arsenic,0.0,Iron (Fe),0.0
707,1300555,MITCHELLS CAMP FAMILY ASSOC.,IMPERIAL,PALO VERDE,92266,175,70.0,1,0.0,Lead (Pb),0.0,Arsenic,0.0,Iron (Fe),0.0
708,1300556,MULBERRY UNION SCHOOL,IMPERIAL,BRAWLEY,92227,85,2.0,6,5.0,Lead (Pb),0.0,Arsenic,0.0,Iron (Fe),1.0
709,1300560,PINE UNION SCHOOL,IMPERIAL,HOLTVILLE,92250,217,1.0,3,2.0,Lead (Pb),0.0,Arsenic,0.0,Iron (Fe),0.0
710,1300579,MCCABE UNION SCHOOL,IMPERIAL,HOLTVILLE,92250,1350,1.0,6,5.0,Lead (Pb),0.0,Arsenic,0.0,Iron (Fe),1.0
711,1300588,IID VILLAGE,IMPERIAL,IMPERIAL,92251,30,20.0,17,4.0,Lead (Pb),0.0,Arsenic,1.0,Iron (Fe),2.0
712,1300591,IID DROP FOUR,IMPERIAL,IMPERIAL,92251,28,8.0,6,2.0,Lead (Pb),0.0,Arsenic,0.0,Iron (Fe),2.0
713,1300616,PALO VERDE COUNTY WATER DIST.,IMPERIAL, ,,410,134.0,1,1.0,Lead (Pb),0.0,Arsenic,0.0,Iron (Fe),0.0
714,1300622,SPORTSMANS PARADISE,IMPERIAL,BLYTHE,92226,60,30.0,4,3.0,Lead (Pb),0.0,Arsenic,0.0,Iron (Fe),0.0
715,1300637,CALENERGY (SALTON SEA UNIT NO III),IMPERIAL,CALIPATRIA,92233,30,1.0,3,2.0,Lead (Pb),0.0,Arsenic,0.0,Iron (Fe),0.0
716,1300638,CALENERGY (VULCAN POWER PLANT),IMPERIAL,CALIPATRIA,92233,87,1.0,3,2.0,Lead (Pb),0.0,Arsenic,0.0,Iron (Fe),1.0
717,1300643,MESQUITE MINES INC.,IMPERIAL,BRAWLEY,92227,285,1.0,21,8.0,Lead (Pb),2.0,Arsenic,0.0,Iron (Fe),0.0
718,1300668,ALLIED WASTE OF IMPERIAL VALLEY,IMPERIAL,IMPERIAL,92251,45,1.0,5,3.0,Lead (Pb),0.0,Arsenic,0.0,Iron (Fe),1.0
719,1310001,"BRAWLEY, CITY OF",IMPERIAL,BRAWLEY,92227,26273,7.0,6,4.0,Lead (Pb),0.0,Arsenic,0.0,Iron (Fe),1.0
720,1310002,"CALEXICO, CITY OF",IMPERIAL,CALEXICO,92231,40211,3.0,12,6.0,Lead (Pb),0.0,Arsenic,0.0,Iron (Fe),2.0
721,1310003,GSWC-CALIPATRIA,IMPERIAL,APPLE VALLEY,92308,4438,1158.0,72,65.0,Lead (Pb),0.0,Arsenic,0.0,Iron (Fe),12.0
722,1310004,"EL CENTRO, CITY OF",IMPERIAL,EL CENTRO,92243,46315,197.0,22,14.0,Lead (Pb),2.0,Arsenic,0.0,Iron (Fe),4.0
723,1310005,"HOLTVILLE, CITY OF",IMPERIAL,HOLTVILLE,92250,6032,150.0,4,2.0,Lead (Pb),0.0,Arsenic,0.0,Iron (Fe),0.0
724,1310006,"IMPERIAL, CITY OF",IMPERIAL,IMPERIAL,92251,19372,53.0,7,5.0,Lead (Pb),0.0,Arsenic,0.0,Iron (Fe),1.0
725,1310007,HEBER PUBLIC UTILITY DISTRICT,IMPERIAL,HEBER,92249,6979,33.0,12,7.0,Lead (Pb),0.0,Arsenic,0.0,Iron (Fe),2.0
726,1310008,"WESTMORLAND, CITY OF",IMPERIAL,WESTMORLAND,92281,2444,501.0,6,5.0,Lead (Pb),0.0,Arsenic,0.0,Iron (Fe),1.0
727,1310011,COACHELLA VWD: I.D. NO. 11,IMPERIAL,PALM DESERT,92211,7400,2755.0,18,6.0,Lead (Pb),0.0,Arsenic,0.0,Iron (Fe),0.0
728,1310013,SEELEY CWD,IMPERIAL,SEELEY,92273,2124,449.0,6,3.0,Lead (Pb),0.0,Arsenic,0.0,Iron (Fe),1.0
729,1310014,IMPERIAL IRRIGATION DISTRICT,IMPERIAL,IMPERIAL,92251,24,1.0,125,80.0,Lead (Pb),0.0,Arsenic,0.0,Iron (Fe),8.0
730,1310300,PICACHO STATE RESERVATION AREA,IMPERIAL,BORREGO SPRINGS,92004,148,4.0,97,2.0,Lead (Pb),0.0,Arsenic,0.0,Iron (Fe),0.0
731,1400002,STARLITE COMMUNITY SERVICE DISTRICT,INYO,BISHOP,93514,175,65.0,11,2.0,Lead (Pb),0.0,Arsenic,0.0,Iron (Fe),0.0
732,1400004,CHARLES BROWN WATER COMPANY,INYO,SHOSHONE,92384,242,40.0,34,10.0,Lead (Pb),0.0,Arsenic,4.0,Iron (Fe),0.0
733,1400005,OWENS VALLEY WATER COMPANY,INYO,LOS ANGELES,90069,300,111.0,5,0.0,Lead (Pb),0.0,Arsenic,0.0,Iron (Fe),0.0
734,1400006,PINE CREEK VILLAGE,INYO,MAMMOTH LAKES,93546,350,89.0,10,2.0,Lead (Pb),0.0,Arsenic,0.0,Iron (Fe),0.0
735,1400007,SIERRA HIGHLAND CSD,INYO,BISHOP,93515,600,215.0,15,7.0,Lead (Pb),0.0,Arsenic,0.0,Iron (Fe),0.0
736,1400010,"ROLLING GREEN UTILITIES, INC.",INYO,BIG PINE,93513,800,285.0,8,6.0,Lead (Pb),0.0,Arsenic,0.0,Iron (Fe),0.0
737,1400014,BISHOP COUNTRY CLUB,INYO,BISHOP,93515,400,10.0,8,0.0,Lead (Pb),0.0,Arsenic,0.0,Iron (Fe),0.0
738,1400019,ROUND VALLEY SCHOOL,INYO,BISHOP,93514,170,2.0,6,3.0,Lead (Pb),0.0,Arsenic,0.0,Iron (Fe),0.0
739,1400020,ABERDEEN WATER SYSTEM,INYO,INDEPENDENCE,93526,23,75.0,2,1.0,Lead (Pb),0.0,Arsenic,0.0,Iron (Fe),0.0
740,1400025,VALLEY VISTA MUTUAL WATER COMPANY,INYO,BISHOP,93515,70,25.0,4,1.0,Lead (Pb),0.0,Arsenic,0.0,Iron (Fe),0.0
741,1400026,RAWSON CREEK MUTUAL WATER COMPANY,INYO,BISHOP,93514,90,40.0,5,1.0,Lead (Pb),0.0,Arsenic,0.0,Iron (Fe),0.0
742,1400027,CARTAGO MUTUAL WATER COMPANY,INYO,OLANCHA,93549,132,40.0,7,3.0,Lead (Pb),0.0,Arsenic,0.0,Iron (Fe),0.0
743,1400030,GLENWOOD MOBILE ESTATES,INYO,LOS ANGELES,90034,300,167.0,8,3.0,Lead (Pb),0.0,Arsenic,0.0,Iron (Fe),0.0
744,1400031,RANCH ROAD ESTATES MUTUAL WATER COMPANY,INYO,BISHOP,93514,65,27.0,3,3.0,Lead (Pb),0.0,Arsenic,0.0,Iron (Fe),0.0
745,1400034,KEOUGH'S HOT SPRINGS,INYO,BISHOP,93514,75,21.0,4,2.0,Lead (Pb),0.0,Arsenic,0.0,Iron (Fe),0.0
746,1400036,KEELER COMMUNITY SERVICE DISTRICT,INYO,KEELER,93530,50,67.0,32,31.0,Lead (Pb),0.0,Arsenic,3.0,Iron (Fe),0.0
747,1400037,FOOTHILL MOBILE HOME PARK,INYO,VALLEY CENER,92082,60,48.0,33,20.0,Lead (Pb),0.0,Arsenic,0.0,Iron (Fe),0.0
748,1400045,PRIMROSE LANE APARTMENTS,INYO,,,52,26.0,2,1.0,Lead (Pb),0.0,Arsenic,0.0,Iron (Fe),0.0
749,1400055,EASTERN SIERRA REGIONAL AIRPORT,INYO,INDEPENDENCE,93526,50,5.0,4,1.0,Lead (Pb),0.0,Arsenic,0.0,Iron (Fe),0.0
750,1400056,BROOKSIDE ESTATES MUTUAL WATER COMPANY,INYO,MAMMOTH LAKES,93546,130,21.0,1,1.0,Lead (Pb),0.0,Arsenic,0.0,Iron (Fe),0.0
751,1400059,BROOKSIDE MOBILE HOME PARK,INYO,SEMI VALLEY,93065,136,45.0,4,0.0,Lead (Pb),0.0,Arsenic,0.0,Iron (Fe),0.0
752,1400064,BERNASCONI EDUCATION CENTER,INYO,INDEPENDENCE,93526,244,15.0,3,1.0,Lead (Pb),0.0,Arsenic,0.0,Iron (Fe),0.0
753,1400068,DEEP SPRINGS COLLEGE,INYO,DYER,89010,40,16.0,2,0.0,Lead (Pb),0.0,Arsenic,0.0,Iron (Fe),0.0
754,1400070,SIERRA GRANDE ESTATES MUTUAL WATER CO.,INYO,BISHOP,93515,200,49.0,3,1.0,Lead (Pb),0.0,Arsenic,0.0,Iron (Fe),0.0
755,1400072,NORTH LONE PINE MUTUAL WATER COMPANY,INYO,LONE PINE,93545,70,33.0,2,2.0,Lead (Pb),0.0,Arsenic,0.0,Iron (Fe),0.0
756,1400078,SCE BISHOP CREEK PLANT 4,INYO,BISHOP,93514,38,15.0,2,2.0,Lead (Pb),0.0,Arsenic,0.0,Iron (Fe),0.0
757,1400098,DARWIN COMMUNITY SERVICE DISTRICT,INYO,DARWIN,93522,60,63.0,3,2.0,Lead (Pb),0.0,Arsenic,0.0,Iron (Fe),0.0
758,1400099,MOUNTAIN VIEW TRAILER COURT,INYO,LOS ANGELES,90012,53,24.0,4,3.0,Lead (Pb),0.0,Arsenic,0.0,Iron (Fe),0.0
759,1400102,LAWS TOWN LADWP,INYO,LOS ANGELES,90012,40,2.0,12,6.0,Lead (Pb),0.0,Arsenic,0.0,Iron (Fe),0.0
760,1400109,SIERRA NORTH COMMUNITY SERVICE DISTRICT,INYO,BISHOP,93514,35,16.0,6,1.0,Lead (Pb),0.0,Arsenic,0.0,Iron (Fe),0.0
761,1400110,PARK WEST MUTUAL WATER COMPANY,INYO,BISHOP,93514,200,67.0,20,9.0,Lead (Pb),0.0,Arsenic,0.0,Iron (Fe),0.0
762,1400111,MEADOWCREEK MUTUAL WATER COMPANY,INYO,BISHOP,93514,764,9.0,35,11.0,Lead (Pb),0.0,Arsenic,0.0,Iron (Fe),0.0
763,1400135,WILSON CIRCLE MUTUAL WATER COMPANY,INYO,BISHOP,93515,129,46.0,9,4.0,Lead (Pb),0.0,Arsenic,0.0,Iron (Fe),0.0
764,1400144,SUNLAND VILLAGE MOBILE HOME PARK,INYO,MAMMOTH LAKES,93546,42,26.0,4,0.0,Lead (Pb),0.0,Arsenic,0.0,Iron (Fe),0.0
765,1400155,CONTROL GORGE POWER PLANT,INYO,LOS ANGELES,90051,47,2.0,126,87.0,Lead (Pb),0.0,Arsenic,12.0,Iron (Fe),0.0
766,1400503,BIRD INDUSTRIAL COMPLEX,INYO,BISHOP,93514,45,8.0,2,0.0,Lead (Pb),0.0,Arsenic,0.0,Iron (Fe),0.0
767,1400511,MEADOW LAKE APARTMENTS,INYO,VENTURA,93006,35,16.0,3,1.0,Lead (Pb),0.0,Arsenic,0.0,Iron (Fe),0.0
768,1400518,VAN LOON WATER ASSOCIATION,INYO,BISHOP,93514,30,15.0,3,1.0,Lead (Pb),0.0,Arsenic,0.0,Iron (Fe),0.0
769,1400521,CR BRIGGS,INYO,TRONA,93562,20,5.0,9,9.0,Lead (Pb),0.0,Arsenic,0.0,Iron (Fe),0.0
770,1400522,PALISADE GLACIER HIGH SCHOOL,INYO,BIG PINE,93513,244,7.0,7,4.0,Lead (Pb),1.0,Arsenic,0.0,Iron (Fe),1.0
771,1400526,EASTERN SIERRA COLLEGE CENTER - BISHOP,INYO,BISHOP,93514,280,1.0,27,12.0,Lead (Pb),0.0,Arsenic,3.0,Iron (Fe),0.0
772,1400527,KEELER YARD LADWP,INYO,LOS ANGELES,90051,85,2.0,114,84.0,Lead (Pb),0.0,Arsenic,13.0,Iron (Fe),0.0
773,1400528,CRYSTAL GEYSER BOTTLING PLANT,INYO,OLANCHA,93549,100,2.0,235,64.0,Lead (Pb),0.0,Arsenic,13.0,Iron (Fe),0.0
774,1410001,"BISHOP, CITY OF",INYO,BISHOP,93515,3879,307.0,9,7.0,Lead (Pb),0.0,Arsenic,0.0,Iron (Fe),0.0
775,1410002,LADWP - INDEPENDENCE,INYO,BISHOP,93514,0,2.0,12,8.0,Lead (Pb),0.0,Arsenic,0.0,Iron (Fe),0.0
776,1410003,LADWP - LONE PINE,INYO,BISHOP,93514,1967,2.0,8,4.0,Lead (Pb),0.0,Arsenic,0.0,Iron (Fe),0.0
777,1410004,LADWP - BIG PINE,INYO,BISHOP,93514,0,2.0,15,8.0,Lead (Pb),0.0,Arsenic,0.0,Iron (Fe),0.0
778,1410005,INDIAN CREEK CSD,INYO,BISHOP,92315,1030,8.0,31,15.0,Lead (Pb),1.0,Arsenic,0.0,Iron (Fe),2.0
779,1410007,HIGHLAND MOBILE HOME PARK,INYO,BISHOP,93514,1400,500.0,22,7.0,Lead (Pb),0.0,Arsenic,0.0,Iron (Fe),0.0
780,1410009,INYO COUNTY PWD - LONE PINE,INYO,INDEPENDENCE,93526,2035,5.0,1,1.0,Lead (Pb),0.0,Arsenic,0.0,Iron (Fe),0.0
781,1410502,"NPS - DEATH VALLEY, STOVEPIPE WELLS",INYO,DEATH VALLEY,92328,175,4.0,4,3.0,Lead (Pb),0.0,Arsenic,0.0,Iron (Fe),0.0
782,1410503,"NPS - DEATH VALLEY, COW CREEK/NEVARES",INYO,DEATH VALLEY,92328,88,6.0,8,3.0,Lead (Pb),0.0,Arsenic,0.0,Iron (Fe),0.0
783,1410505,"NPS - DEATH VALLEY, FURNACE CREEK",INYO,DEATH VALLEY,92328,150,150.0,170,86.0,Lead (Pb),0.0,Arsenic,12.0,Iron (Fe),0.0
784,1410510,LADWP - MANZANAR,INYO,BISHOP,93514,0,1.0,1,1.0,Lead (Pb),0.0,Arsenic,0.0,Iron (Fe),0.0
785,1410800,CDF - OWENS VALLEY CONSERVATION CAMP,INYO,BISHOP,93514,178,11.0,10,10.0,Lead (Pb),0.0,Arsenic,0.0,Iron (Fe),0.0
786,1500096,OLD RIVER MUTUAL WATER COMPANY,KERN,BAKERSFIELD,93308,48,14.0,14,2.0,Lead (Pb),0.0,Arsenic,0.0,Iron (Fe),0.0
787,1500152,MIRASOL COMPANY WATER SYSTEM,KERN,BUTTONWILLOW,93206,26,12.0,9,3.0,Lead (Pb),0.0,Arsenic,0.0,Iron (Fe),0.0
788,1500209,ALTA SIERRA MUTUAL WATER CO.,KERN,WOFFORD HEIGHTS,93285,143,222.0,16,8.0,Lead (Pb),0.0,Arsenic,0.0,Iron (Fe),0.0
789,1500216,OPAL FRY AND SON,KERN,BAKERSFIELD,93313,40,13.0,7,3.0,Lead (Pb),0.0,Arsenic,0.0,Iron (Fe),0.0
790,1500231,VICTORY MUTUAL WATER COMPANY,KERN,BAKERSFIELD,93384,849,173.0,60,13.0,Lead (Pb),0.0,Arsenic,0.0,Iron (Fe),1.0
791,1500251,RIVERKERN MUTUAL WATER COMPANY,KERN,KERNVILLE,93238,336,114.0,32,24.0,Lead (Pb),0.0,Arsenic,0.0,Iron (Fe),0.0
792,1500252,KERN VALLEY MUTUAL WATER COMPANY,KERN,BODFISH,93205,47,4.0,6,2.0,Lead (Pb),0.0,Arsenic,0.0,Iron (Fe),0.0
793,1500289,ATHAL MUTUAL WATER SYSTEM,KERN,BAKERSFIELD,93387,150,55.0,14,3.0,Lead (Pb),0.0,Arsenic,0.0,Iron (Fe),0.0
794,1500290,NORTH MUROC MUTUAL WATER COMPANY,KERN,NORTH EDWARDS,93523,270,2.0,4,3.0,Lead (Pb),0.0,Arsenic,0.0,Iron (Fe),0.0
795,1500296,FULLER ACRES MUTUAL WATER COMPANY,KERN,LAMONT,93241,545,165.0,75,20.0,Lead (Pb),0.0,Arsenic,2.0,Iron (Fe),0.0
796,1500314,DEL ORO WC - COUNTRY ESTATES DIST,KERN,CHICO,95927,297,90.0,23,3.0,Lead (Pb),0.0,Arsenic,1.0,Iron (Fe),0.0
797,1500327,RANCHO SECO INC. WATER SYSTEM,KERN,CANTIL,93519,25,12.0,5,2.0,Lead (Pb),0.0,Arsenic,0.0,Iron (Fe),0.0
798,1500333,CWS - FREMONT VALLEY,KERN,SAN JOSE,95112-4508,116,84.0,16,7.0,Lead (Pb),0.0,Arsenic,0.0,Iron (Fe),0.0
799,1500336,BURLANDO HEIGHTS MUTUAL WATER CO.,KERN,KERNVILLE,93238,45,42.0,22,8.0,Lead (Pb),1.0,Arsenic,0.0,Iron (Fe),1.0
800,1500340,WEST TEHACHAPI MUTUAL,KERN,TEHACHAPI,93561,150,36.0,15,2.0,Lead (Pb),0.0,Arsenic,0.0,Iron (Fe),0.0
801,1500341,SIERRA BELLA MUTUAL WATER COMPANY,KERN,WOFFORD HEIGHTS,93285,60,180.0,13,4.0,Lead (Pb),0.0,Arsenic,0.0,Iron (Fe),0.0
802,1500344,SOUTH KERN MUTUAL WATER COMPANY,KERN,BAKERSFIELD,93311,32,15.0,12,3.0,Lead (Pb),0.0,Arsenic,0.0,Iron (Fe),0.0
803,1500349,STOCKDALE MUTUAL WATER CO.,KERN,BAKERSFIELD,93302,200,81.0,14,5.0,Lead (Pb),0.0,Arsenic,0.0,Iron (Fe),1.0
804,1500364,KERNVALE MUTUAL WATER CO,KERN,LAKE ISABELLA,93240,75,32.0,3,2.0,Lead (Pb),0.0,Arsenic,0.0,Iron (Fe),0.0
805,1500374,CWS-GRAND OAKS WATER SYSTEM,KERN,SAN JOSE,95112-4508,149,44.0,36,30.0,Lead (Pb),0.0,Arsenic,0.0,Iron (Fe),0.0
806,1500378,MAHER MUTUAL WATER COMPANY,KERN,BAKERSFIELD,93312,150,50.0,38,31.0,Lead (Pb),0.0,Arsenic,5.0,Iron (Fe),0.0
807,1500380,DE RANCHO Y MOBILE VILLA WATER,KERN,BAKERSFIELD,93309,200,90.0,4,2.0,Lead (Pb),0.0,Arsenic,0.0,Iron (Fe),0.0
808,1500393,RAINBIRD VALLEY MUTUAL WATER COMPANY,KERN,WELDON,93283,238,85.0,25,15.0,Lead (Pb),0.0,Arsenic,0.0,Iron (Fe),0.0
809,1500396,DESERT PARADISE RV PARK WATER SYSTEM,KERN,MANHATTAN BEACH,90266,25,25.0,2,0.0,Lead (Pb),0.0,Arsenic,0.0,Iron (Fe),0.0
810,1500398,FRONTIER TRAILS HOMEOWNERS ASSOC INC.,KERN,KERNVILLE,93238,32,32.0,14,10.0,Lead (Pb),0.0,Arsenic,0.0,Iron (Fe),1.0
811,1500401,METTLER COUNTY WATER DISTRICT,KERN,BAKERSFIELD,93313,157,17.0,16,5.0,Lead (Pb),0.0,Arsenic,0.0,Iron (Fe),0.0
812,1500404,PINEBROOK COMMUNITY WATER WELL,KERN,WOFFORD HEIGHTS,93285,94,42.0,28,14.0,Lead (Pb),0.0,Arsenic,0.0,Iron (Fe),2.0
813,1500405,"AERIAL ACRES WATER COMPANY, INC.",KERN,NORTH EDWARDS,93523,112,48.0,90,42.0,Lead (Pb),0.0,Arsenic,8.0,Iron (Fe),0.0
814,1500406,TRADEWIND WATER ASSOC.,KERN,WELDON,93283,632,0.0,12,4.0,Lead (Pb),0.0,Arsenic,0.0,Iron (Fe),0.0
815,1500407,CWS-SPLIT MOUNTAIN WATER SYSTEM,KERN,SAN JOSE,95112-4508,211,160.0,233,39.0,Lead (Pb),0.0,Arsenic,0.0,Iron (Fe),0.0
816,1500409,BROCK MUTUAL WATER COMPANY,KERN,BAKERSFIELD,93312,462,155.0,85,16.0,Lead (Pb),0.0,Arsenic,3.0,Iron (Fe),0.0
817,1500413,TEJON RANCH MAIN HEADQUARTERS,KERN,LEBEC,93243,132,2.0,6,2.0,Lead (Pb),0.0,Arsenic,0.0,Iron (Fe),0.0
818,1500415,TEJON RANCH GRAPEVINE WATER,KERN,LEBEC,93243,2211,1.0,5,1.0,Lead (Pb),0.0,Arsenic,0.0,Iron (Fe),0.0
819,1500424,LANDS OF PROMISE MWC,KERN,ROSAMOND,93560,174,63.0,132,116.0,Lead (Pb),0.0,Arsenic,11.0,Iron (Fe),0.0
820,1500426,ROSE VILLA APARTMENTS,KERN,RANCHO PALOS VERDES,90275,65,32.0,30,6.0,Lead (Pb),0.0,Arsenic,0.0,Iron (Fe),0.0
821,1500436,HUNGRY GULCH MWC,KERN,LAKE ISABELLA,93240,61,36.0,111,89.0,Lead (Pb),0.0,Arsenic,12.0,Iron (Fe),0.0
822,1500442,SUNSET APARTMENTS WS,KERN,NORTH EDWARDS,93523,37,20.0,32,28.0,Lead (Pb),0.0,Arsenic,4.0,Iron (Fe),0.0
823,1500443,CANYON MEADOWS MUTUAL WATER,KERN,BODFISH,93205,394,141.0,58,20.0,Lead (Pb),0.0,Arsenic,0.0,Iron (Fe),0.0
824,1500447,SIERRA BREEZE MUTUAL WATER COMPANY,KERN,INYOKERN,93527,150,60.0,23,7.0,Lead (Pb),0.0,Arsenic,0.0,Iron (Fe),0.0
825,1500448,HILLVIEW ACRES MUTUAL WATER COMPANY,KERN,WELDON,93283,36,47.0,8,2.0,Lead (Pb),0.0,Arsenic,0.0,Iron (Fe),0.0
826,1500449,FOURTH STREET WATER SYSTEM,KERN,LAKE ISABELLA,93240,56,28.0,49,36.0,Lead (Pb),0.0,Arsenic,0.0,Iron (Fe),0.0
827,1500452,RIVERDALE VILLAGE,KERN,BAKERSFIELD,93308,750,290.0,5,2.0,Lead (Pb),0.0,Arsenic,0.0,Iron (Fe),0.0
828,1500455,WILLIAM FISHER MEMORIAL WATER COMPANY,KERN,BAKERSFIELD,93313,56,16.0,34,31.0,Lead (Pb),0.0,Arsenic,4.0,Iron (Fe),0.0
829,1500458,R.S. MUTUAL WATER COMPANY,KERN,WOFFORD HEIGHTS,93285,67,24.0,40,24.0,Lead (Pb),1.0,Arsenic,4.0,Iron (Fe),0.0
830,1500459,LAKE OF THE WOODS MOBILE VILLAGE,KERN,LAKE OF THE WOODS,93225,82,86.0,14,4.0,Lead (Pb),0.0,Arsenic,0.0,Iron (Fe),0.0
831,1500461,FOUNTAIN TRAILER PARK WATER,KERN,NORTH EDWARDS,93523,68,33.0,34,29.0,Lead (Pb),1.0,Arsenic,5.0,Iron (Fe),0.0
832,1500465,OAK KNOLLS MUTUAL WATER COMPANY,KERN,LAKE ISABELLA,93240,123,47.0,26,11.0,Lead (Pb),0.0,Arsenic,0.0,Iron (Fe),0.0
833,1500466,A.F.P. MUTUAL WATER COMPANY,KERN,TEHACHAPI,93561,686,1.0,186,122.0,Lead (Pb),0.0,Arsenic,0.0,Iron (Fe),21.0
834,1500475,KRISTA MUTUAL WATER COMPANY,KERN,FRAZIER PARK,93225,501,179.0,10,1.0,Lead (Pb),0.0,Arsenic,0.0,Iron (Fe),0.0
835,1500478,"VALLEY ESTATES POA, INC.",KERN,WELDON,93283,386,113.0,15,5.0,Lead (Pb),0.0,Arsenic,0.0,Iron (Fe),0.0
836,1500481,RIVERNOOK CAMPGROUND,KERN,KERNVILLE,93238,877,137.0,19,11.0,Lead (Pb),1.0,Arsenic,0.0,Iron (Fe),1.0
837,1500483,ALLEN ROAD MUTUAL WATER SYSTEM,KERN,BAKERSFIELD,93390,195,59.0,8,4.0,Lead (Pb),0.0,Arsenic,0.0,Iron (Fe),0.0
838,1500485,ANTELOPE VALLEY MOBILE ESTATES,KERN,ROSAMOND,93560,60,28.0,38,3.0,Lead (Pb),0.0,Arsenic,0.0,Iron (Fe),0.0
839,1500489,BRITE LAKE MUTUAL WATER COMPANY,KERN,TEHACHAPI,93561,89,27.0,27,6.0,Lead (Pb),0.0,Arsenic,0.0,Iron (Fe),0.0
840,1500491,INTERSTATE 5 UILITY COMPANY,KERN,BAKERSFIELD,93313,2948,20.0,20,4.0,Lead (Pb),1.0,Arsenic,0.0,Iron (Fe),0.0
841,1500493,"EL ADOBE POA, INC.",KERN,BAKERSFIELD,93307,200,80.0,65,31.0,Lead (Pb),0.0,Arsenic,4.0,Iron (Fe),0.0
842,1500494,WILSON ROAD WATER COMMUNITY,KERN,BAKERSFIELD,93307,66,20.0,20,16.0,Lead (Pb),0.0,Arsenic,0.0,Iron (Fe),0.0
843,1500495,AERA ENERGY-LLC,KERN,MCKITTRICK,93251,1500,21.0,26,8.0,Lead (Pb),1.0,Arsenic,0.0,Iron (Fe),0.0
844,1500507,ST. CLAIR RANCHOS MUTUAL WATER CO.,KERN,BAKERSFIELD,93314,105,32.0,5,3.0,Lead (Pb),0.0,Arsenic,0.0,Iron (Fe),0.0
845,1500508,TWIN PINES MOBILEHOME PARK,KERN,BAKERSFIELD,93301,92,40.0,4,1.0,Lead (Pb),0.0,Arsenic,0.0,Iron (Fe),0.0
846,1500511,VR'S TRAILER PARK,KERN,BAKERSFIELD,93307,25,27.0,1,0.0,Lead (Pb),0.0,Arsenic,0.0,Iron (Fe),0.0
847,1500516,TUT BROTHERS FARM #96,KERN,WATSONVILLE,95077,30,13.0,11,10.0,Lead (Pb),0.0,Arsenic,0.0,Iron (Fe),1.0
848,1500518,AGBAYANI VILLAGE WATER SYSTEM,KERN,DELANO,93216,38,5.0,14,2.0,Lead (Pb),0.0,Arsenic,0.0,Iron (Fe),0.0
849,1500525,LAKEVIEW RANCHOS MUTUAL WATER COMPANY,KERN,WELDON,93283,120,71.0,114,55.0,Lead (Pb),0.0,Arsenic,4.0,Iron (Fe),0.0
850,1500535,MANON MANOR MUTUAL WATER COMPANY,KERN,BAKERSFIELD,93314,200,55.0,9,3.0,Lead (Pb),0.0,Arsenic,0.0,Iron (Fe),0.0
851,1500540,PINON VALLEY WATER COMPANY,KERN,TEHACHAPI,93561,109,38.0,88,56.0,Lead (Pb),0.0,Arsenic,14.0,Iron (Fe),1.0
852,1500542,WILLOW SPRINGS MOBILE HOME PARK,KERN,TEHACHAPI,93561,275,2.0,6,3.0,Lead (Pb),0.0,Arsenic,0.0,Iron (Fe),0.0
853,1500543,AGAPE MUTUAL WATER SYSTEM,KERN,BAKERSFIELD,93314,60,16.0,4,2.0,Lead (Pb),0.0,Arsenic,0.0,Iron (Fe),0.0
854,1500544,ENOS LANE PUBLIC UTILITY DISTRICT,KERN,BAKERSFIELD,93390,270,95.0,45,8.0,Lead (Pb),0.0,Arsenic,1.0,Iron (Fe),0.0
855,1500546,HARVEST MOON MUTUAL WATER CO,KERN,BAKERSFIELD,93314,138,49.0,19,6.0,Lead (Pb),0.0,Arsenic,0.0,Iron (Fe),0.0
856,1500550,WEST VALLEY MUTUAL WATER COMPANY,KERN,INYOKERN,93527,70,0.0,8,5.0,Lead (Pb),0.0,Arsenic,0.0,Iron (Fe),0.0
857,1500553,RANCHOS DEL RIO,KERN,BAKERSFIELD,93308,62,24.0,13,6.0,Lead (Pb),0.0,Arsenic,0.0,Iron (Fe),0.0
858,1500554,EAST INYOKERN MUTUAL WATER,KERN,INYOKERN,93527,87,28.0,19,9.0,Lead (Pb),1.0,Arsenic,0.0,Iron (Fe),1.0
859,1500555,MUSTANG MUTUAL WATER SYSTEM,KERN,BAKERSFIELD,93390,200,51.0,7,2.0,Lead (Pb),0.0,Arsenic,0.0,Iron (Fe),0.0
860,1500556,HART FLAT BEAR MUTUAL WATER,KERN,KEENE,93531,56,28.0,43,38.0,Lead (Pb),0.0,Arsenic,0.0,Iron (Fe),7.0
861,1500557,STOCKDALE RANCHOS MUTUAL WATER CO,KERN,BAKERSFIELD,93301,393,95.0,8,4.0,Lead (Pb),0.0,Arsenic,0.0,Iron (Fe),0.0
862,1500560,KRANENBURG WATER SYSTEM,KERN,BAKERSFIELD,93314,42,15.0,6,2.0,Lead (Pb),0.0,Arsenic,0.0,Iron (Fe),0.0
863,1500561,ROUND MOUNTAIN WATER COMPANY,KERN,BAKERSFIELD,93308,50,17.0,10,4.0,Lead (Pb),0.0,Arsenic,0.0,Iron (Fe),0.0
864,1500563,CHINA LAKE ACRES MUTUAL WATER COMPANY,KERN,RIDGECREST,93527,198,60.0,15,7.0,Lead (Pb),0.0,Arsenic,0.0,Iron (Fe),1.0
865,1500564,HOMETOWN WATER ASSOCIATION,KERN,RIDGECREST,93555,25,12.0,7,2.0,Lead (Pb),0.0,Arsenic,0.0,Iron (Fe),0.0
866,1500566,SPRING MOUNTAIN MUTUAL WATER COMPANY,KERN,WOODY,93287,27,13.0,6,3.0,Lead (Pb),0.0,Arsenic,0.0,Iron (Fe),1.0
867,1500569,VALLEY VIEW ESTATES MUTUAL WATER CO,KERN,KEENE,93531,96,50.0,80,29.0,Lead (Pb),0.0,Arsenic,0.0,Iron (Fe),1.0
868,1500571,"LUCKY 18 ON ROSAMOND, LLC",KERN,LOS ANGELES,90015,73,60.0,33,31.0,Lead (Pb),0.0,Arsenic,4.0,Iron (Fe),0.0
869,1500575,SAN JOAQUIN ESTATES MUTUAL WATER COMPANY,KERN,BAKERSFIELD,93387,165,61.0,25,17.0,Lead (Pb),0.0,Arsenic,0.0,Iron (Fe),0.0
870,1500578,LONG CANYON WATER COMPANY CORP.,KERN,BAKERSFIELD,93309,122,1.0,5,4.0,Lead (Pb),0.0,Arsenic,0.0,Iron (Fe),1.0
871,1500579,LIFE WATER CO-OP,KERN,INYOKERN,93527,27,18.0,5,2.0,Lead (Pb),0.0,Arsenic,0.0,Iron (Fe),0.0
872,1500584,GOOSELAKE WATER COMPANY,KERN,BAKERSFIELD,93314,90,32.0,16,7.0,Lead (Pb),0.0,Arsenic,0.0,Iron (Fe),0.0
873,1500585,OASIS PROPERTY OWNERS ASSOCIATION,KERN,BAKERSFIELD,93387,100,39.0,37,20.0,Lead (Pb),0.0,Arsenic,2.0,Iron (Fe),0.0
874,1500588,SON SHINE PROPERTIES,KERN,EDISON,93220,438,106.0,22,16.0,Lead (Pb),0.0,Arsenic,0.0,Iron (Fe),0.0
875,1500591,SWEET WATER CO-OP,KERN,INYOKERN,93527,47,15.0,6,2.0,Lead (Pb),0.0,Arsenic,0.0,Iron (Fe),0.0
876,1500593,UPLANDS OF THE KERN MUTUAL WATER COMPANY,KERN,BAKERSFIELD,93308,80,20.0,2,2.0,Lead (Pb),0.0,Arsenic,0.0,Iron (Fe),0.0
877,1500597,GRIMMWAY FARMS- FROZEN FOODS,KERN,BAKERSFIELD,93380,300,0.0,202,138.0,Lead (Pb),0.0,Arsenic,24.0,Iron (Fe),0.0
878,1500599,CHOCTAW VALLEY MUTUAL WATER CO.,KERN,BAKERSFIELD,93308,44,18.0,4,2.0,Lead (Pb),0.0,Arsenic,0.0,Iron (Fe),0.0
879,1500600,J.G. BOSWELL COMPANY WATER SYSTEM,KERN,BAKERSFIELD,93389,47,5.0,51,29.0,Lead (Pb),0.0,Arsenic,4.0,Iron (Fe),0.0
880,1502004,"ANDREWS AG., INC",KERN,BAKERSFIELD,93313,52,4.0,2,0.0,Lead (Pb),0.0,Arsenic,0.0,Iron (Fe),0.0
881,1502008,HOSKING AVENUE SWAP MEET,KERN,BAKERSFIELD,93307,32,5.0,2,0.0,Lead (Pb),0.0,Arsenic,0.0,Iron (Fe),0.0
882,1502012,HECK CELLARS WATER SYSTEM,KERN,DIGIORGIO,93203,47,0.0,33,23.0,Lead (Pb),0.0,Arsenic,0.0,Iron (Fe),0.0
883,1502017,WHEELER FARMS HEADQUARTERS,KERN,BAKERSFIELD,93312,25,10.0,16,14.0,Lead (Pb),0.0,Arsenic,0.0,Iron (Fe),0.0
884,1502034,CALIFORNIA PORTLAND CEMENT,KERN,MOJAVE,93501,200,0.0,5,2.0,Lead (Pb),0.0,Arsenic,0.0,Iron (Fe),0.0
885,1502042,CAMP LAKOTA WATER SYSTEM,KERN,LOS ANGELES,90015,205,1.0,3,0.0,Lead (Pb),0.0,Arsenic,0.0,Iron (Fe),0.0
886,1502044,CAMP TECUYA WATER SYSTEM,KERN,LOS ANGELES,90041,180,3.0,1,0.0,Lead (Pb),0.0,Arsenic,0.0,Iron (Fe),0.0
887,1502056,CLARK STREET COMMUNITY WELL,KERN,LAKE ISABELLA,93240,90,20.0,8,2.0,Lead (Pb),0.0,Arsenic,0.0,Iron (Fe),0.0
888,1502066,DELANO GROWER S GRAPE PRODUCTS,KERN,DELANO,93215,41,1.0,14,1.0,Lead (Pb),0.0,Arsenic,0.0,Iron (Fe),0.0
889,1502068,DI GIORGIO SCHOOL WATER SYSTEM,KERN,ARVIN,93203,232,1.0,24,5.0,Lead (Pb),0.0,Arsenic,0.0,Iron (Fe),0.0
890,1502073,CAMP EL CAMINO PINES,KERN,FRAZIER PARK,93225,208,1.0,1,0.0,Lead (Pb),0.0,Arsenic,0.0,Iron (Fe),0.0
891,1502074,EL TEJON MIDDLE SCHOOL,KERN,LEBEC,93243,550,1.0,7,1.0,Lead (Pb),0.0,Arsenic,0.0,Iron (Fe),0.0
892,1502133,V LIONS OPS WATER SYSTEM,KERN,WASCO,93280,35,3.0,3,0.0,Lead (Pb),0.0,Arsenic,0.0,Iron (Fe),0.0
893,1502134,JAMESON RANCH CAMP,KERN,GLENNVILLE,93226,100,11.0,1,0.0,Lead (Pb),0.0,Arsenic,0.0,Iron (Fe),0.0
894,1502154,LAKESIDE SCHOOL,KERN,BAKERSFIELD,93311,800,1.0,27,27.0,Lead (Pb),0.0,Arsenic,3.0,Iron (Fe),0.0
895,1502164,LLANAS CAMP FOUR WATER SYSTEM,KERN,SHAFTER,93263,54,55.0,7,2.0,Lead (Pb),0.0,Arsenic,0.0,Iron (Fe),0.0
896,1502194,SIERRA VISTA RESTAURANT,KERN,WELDON,93283,50,1.0,9,9.0,Lead (Pb),0.0,Arsenic,0.0,Iron (Fe),0.0
897,1502213,PARADISE COVE LODGE,KERN,LAKE ISABELLA,93240,52,0.0,2,0.0,Lead (Pb),0.0,Arsenic,0.0,Iron (Fe),0.0
898,1502217,BETHEL IN THE HILLS - PCG CAMP,KERN,FRAZIER PARK,93225,320,7.0,3,0.0,Lead (Pb),0.0,Arsenic,0.0,Iron (Fe),0.0
899,1502223,WILLOW SPRINGS RACEWAY,KERN,ROSAMOND,93560,5022,0.0,6,0.0,Lead (Pb),0.0,Arsenic,0.0,Iron (Fe),0.0
900,1502225,RANKIN GUEST RANCH,KERN,CALIENTE,93518,42,7.0,8,0.0,Lead (Pb),0.0,Arsenic,0.0,Iron (Fe),0.0
901,1502231,ROSAMOND SCHOOL WATER SYSTEM,KERN,ROSAMOND,93560,940,2.0,77,30.0,Lead (Pb),0.0,Arsenic,4.0,Iron (Fe),0.0
902,1502232,ROSAMOND MOBILEHOME PARK,KERN,IRVINE,92602,175,79.0,7,3.0,Lead (Pb),0.0,Arsenic,0.0,Iron (Fe),0.0
903,1502247,DESERT BREEZE MOBILE HOME ESTATES,KERN,ENCINO,91416,82,63.0,34,4.0,Lead (Pb),0.0,Arsenic,0.0,Iron (Fe),0.0
904,1502249,CAMP ST NICHOLAS WATER SYSTEM,KERN,LOS ANGELES,90057,212,8.0,1,0.0,Lead (Pb),0.0,Arsenic,0.0,Iron (Fe),0.0
905,1502260,SOUTH FORK ELEMENTARY SCHOOL WATER SYS,KERN,WELDON,93283,154,1.0,4,0.0,Lead (Pb),0.0,Arsenic,0.0,Iron (Fe),0.0
906,1502277,TEHACHAPI CUMMINGS COUNTY WATER DISTRICT,KERN,TEHACHAPI,93581,28,0.0,6,0.0,Lead (Pb),0.0,Arsenic,0.0,Iron (Fe),0.0
907,1502315,CAMP OWEN WATER SYSTEM,KERN,KERNVILLE,93238,225,0.0,38,13.0,Lead (Pb),0.0,Arsenic,0.0,Iron (Fe),0.0
908,1502317,KERN CO P&R-GREENHORN MT. PARK WATER,KERN,BAKERSFIELD,93301,60,36.0,3,1.0,Lead (Pb),0.0,Arsenic,0.0,Iron (Fe),0.0
909,1502319,KERN CO P&R-LAKE WOOLLOMES WATER SYSTEM,KERN,BAKERSFIELD,93301,404,3.0,1,0.0,Lead (Pb),0.0,Arsenic,0.0,Iron (Fe),0.0
910,1502320,LERDO SHERIFF S FACILITY,KERN,BAKERSFIELD,93308,2800,110.0,17,9.0,Lead (Pb),0.0,Arsenic,0.0,Iron (Fe),0.0
911,1502327,KERN VALLEY AIRPORT,KERN,BAKERSFIELD,93308,49,1.0,11,0.0,Lead (Pb),0.0,Arsenic,0.0,Iron (Fe),0.0
912,1502383,NORD ROAD WATER ASSOCIATION,KERN,BAKERSFIELD,93312,32,16.0,45,38.0,Lead (Pb),0.0,Arsenic,6.0,Iron (Fe),0.0
913,1502449,CYPRESS CANYON WATER SYSTEM,KERN,LAKE ISABELLA,93240,44,16.0,10,4.0,Lead (Pb),0.0,Arsenic,0.0,Iron (Fe),0.0
914,1502465,PANAMA ROAD PROPERTY OWNERS ASSOC,KERN,BAKERFIELD,93307,45,16.0,8,2.0,Lead (Pb),0.0,Arsenic,0.0,Iron (Fe),0.0
915,1502545,SCHWEIKART WATER SYSTEM,KERN,BAKERSFIELD,93314,37,8.0,11,2.0,Lead (Pb),0.0,Arsenic,0.0,Iron (Fe),0.0
916,1502549,POPLAR AVENUE COMMUNITY,KERN,SHAFTER,93263,22,6.0,15,3.0,Lead (Pb),0.0,Arsenic,0.0,Iron (Fe),0.0
917,1502564,SIERRA MEADOWS,KERN,KERNVILLE,93238,68,1.0,6,2.0,Lead (Pb),0.0,Arsenic,0.0,Iron (Fe),0.0
918,1502569,FIRST MUTUAL WATER SYSTEM,KERN,ROSAMOND,93560,35,15.0,34,29.0,Lead (Pb),0.0,Arsenic,4.0,Iron (Fe),0.0
919,1502597,DEL SOL WATER CO-OP,KERN,INYOKERN,93527,22,4.0,5,1.0,Lead (Pb),0.0,Arsenic,0.0,Iron (Fe),0.0
920,1502600,WEGIS MUTUAL WATER COMPANY,KERN,BAKERSFIELD,93314,51,23.0,3,2.0,Lead (Pb),0.0,Arsenic,0.0,Iron (Fe),0.0
921,1502608,OWENS PEAK WEST,KERN,INYOKERN,93527,67,24.0,5,2.0,Lead (Pb),0.0,Arsenic,0.0,Iron (Fe),0.0
922,1502619,SOUTH DESERT MUTUAL WATER COMPANY,KERN,INYOKERN,93527,26,13.0,9,2.0,Lead (Pb),0.0,Arsenic,0.0,Iron (Fe),0.0
923,1502620,POND MUTUAL WATER COMPANY,KERN,WASCO,93280,48,18.0,35,26.0,Lead (Pb),0.0,Arsenic,4.0,Iron (Fe),0.0
924,1502622,GOSFORD ROAD WATER COMPANY,KERN,BAKERSFIELD,93313,50,15.0,16,5.0,Lead (Pb),0.0,Arsenic,0.0,Iron (Fe),0.0
925,1502629,HEATH BRIMHALL P.O.A.,KERN,BAKERSFIELD,93384,47,14.0,5,3.0,Lead (Pb),0.0,Arsenic,0.0,Iron (Fe),0.0
926,1502645,MEADOWS OF THE KERN MUTUAL WATER COMPANY,KERN,BAKERSFIELD,93308,32,16.0,24,17.0,Lead (Pb),0.0,Arsenic,0.0,Iron (Fe),0.0
927,1502653,BELLA VISTA MUTUAL WATER COMPANY,KERN,WELDON,93283,150,46.0,12,5.0,Lead (Pb),1.0,Arsenic,0.0,Iron (Fe),0.0
928,1502659,OWENS PEAK SOUTH,KERN,INYOKERN,93527,40,17.0,6,2.0,Lead (Pb),0.0,Arsenic,0.0,Iron (Fe),0.0
929,1502663,TOWN & COUNTRY WATER COMPANY,KERN,BAKERSFIELD,93306,73,22.0,6,5.0,Lead (Pb),0.0,Arsenic,0.0,Iron (Fe),0.0
930,1502666,WILCOX WATER SYSTEM,KERN, ,,20,12.0,4,1.0,Lead (Pb),0.0,Arsenic,0.0,Iron (Fe),0.0
931,1502670,"FAIRVIEW WATER COMPANY, LLC",KERN,TEHACHAPI,93561,240,72.0,24,5.0,Lead (Pb),0.0,Arsenic,0.0,Iron (Fe),0.0
932,1502680,ORANGE GROVE RV PARK,KERN,EDISON,93220,205,1.0,12,1.0,Lead (Pb),0.0,Arsenic,0.0,Iron (Fe),0.0
933,1502690,"DUNE 3 MUTUAL WATER COMPANY, LLC",KERN,MORRO BAY,93443,101,0.0,15,8.0,Lead (Pb),1.0,Arsenic,0.0,Iron (Fe),1.0
934,1502699,EAST WILSON ROAD WATER COMPANY,KERN,BAKERSFIELD,93307,35,14.0,16,13.0,Lead (Pb),0.0,Arsenic,0.0,Iron (Fe),0.0
935,1502717,MOUNTAIN VALLEY AIRPORT,KERN,TEHACHAPI,93581,108,1.0,10,0.0,Lead (Pb),0.0,Arsenic,0.0,Iron (Fe),0.0
936,1502744,60TH STREET ASSOC. WATER SYSTEM,KERN,ROSAMOND,93560,39,10.0,37,13.0,Lead (Pb),0.0,Arsenic,3.0,Iron (Fe),0.0
937,1502750,RIVERVIEW HOMEOWNERS ASSOCIATION,KERN,BAKERSIELD,93308,40,20.0,4,3.0,Lead (Pb),0.0,Arsenic,0.0,Iron (Fe),0.0
938,1503093,GRIMMWAY ENTERPRISES-MALAGA WATER SYSTEM,KERN,BAKERSFIELD,93380,1200,0.0,391,25.0,Lead (Pb),0.0,Arsenic,0.0,Iron (Fe),0.0
939,1503140,FRAZIER MOUNTAIN HIGH SCHOOL,KERN,LEBEC,93243,500,1.0,11,0.0,Lead (Pb),0.0,Arsenic,0.0,Iron (Fe),0.0
940,1503226,QVWD-WEST & EAST COMBINED WATER SYSTEM,KERN,TEHACHAPI,93561,193,2.0,85,75.0,Lead (Pb),0.0,Arsenic,3.0,Iron (Fe),6.0
941,1503243,HONDA PROVING CENTER,KERN,CANTIL,93519,65,4.0,4,0.0,Lead (Pb),0.0,Arsenic,0.0,Iron (Fe),0.0
942,1503290,THE GARLIC COMPANY,KERN,SHAFTER,93263,120,1.0,6,5.0,Lead (Pb),0.0,Arsenic,0.0,Iron (Fe),0.0
943,1503329,HART CREEK ESTATES MUTUAL WATER CO.,KERN,BAKERSFIELD,93304,140,73.0,113,44.0,Lead (Pb),0.0,Arsenic,0.0,Iron (Fe),7.0
944,1503349,"WM. BOLTHOUSE FARMS, INC.",KERN,BAKERSFIELD,93307,2437,12.0,123,53.0,Lead (Pb),0.0,Arsenic,1.0,Iron (Fe),0.0
945,1503368,SOUTH FORK MIDDLE SCHOOL,KERN,WELDON,93283,174,1.0,11,0.0,Lead (Pb),0.0,Arsenic,0.0,Iron (Fe),0.0
946,1503378,WIND WOLVES PRESERVE,KERN,MARICOPA,93252,254,2.0,2,0.0,Lead (Pb),0.0,Arsenic,0.0,Iron (Fe),0.0
947,1503397,CALVARY CHAPEL,KERN,TEHACHAPI,93561,107,1.0,12,0.0,Lead (Pb),0.0,Arsenic,0.0,Iron (Fe),0.0
948,1503475,WESTERN ACRES MUTUAL WATER COMPANY,KERN,HANFORD,93230,310,90.0,18,8.0,Lead (Pb),0.0,Arsenic,1.0,Iron (Fe),0.0
949,1503482,RIO MESA MUTUAL WATER COMPANY,KERN,BAKERSFIELD,93308,25,6.0,4,2.0,Lead (Pb),0.0,Arsenic,0.0,Iron (Fe),0.0
950,1503509,THE ANNE SIPPI CLINIC-RIVERSIDE RANCH,KERN,BAKERSFIELD,93306,35,2.0,26,18.0,Lead (Pb),0.0,Arsenic,0.0,Iron (Fe),4.0
951,1503526,WINI MUTUAL WATER COMPANY,KERN,BAKERSFIELD,93307,29,12.0,16,4.0,Lead (Pb),0.0,Arsenic,0.0,Iron (Fe),0.0
952,1503536,GLENNVILLE MUTUAL WATER COMPANY,KERN,GLENVILLE,93226,100,3.0,4,2.0,Lead (Pb),0.0,Arsenic,0.0,Iron (Fe),0.0
953,1503657,KIMBERLINA HOUSING UNIT,KERN,WASCO,93280,26,8.0,67,11.0,Lead (Pb),0.0,Arsenic,0.0,Iron (Fe),0.0
954,1503660,DELTA TRADING WATER SYSTEM,KERN,BAKERSFIELD,93311,25,11.0,132,18.0,Lead (Pb),0.0,Arsenic,1.0,Iron (Fe),0.0
955,1503669,NORTH KRANENBURG WS,KERN,BAKERSFIELD,93314,33,10.0,5,3.0,Lead (Pb),0.0,Arsenic,0.0,Iron (Fe),0.0
956,1510001,ARVIN COMMUNITY SERVICES DIST,KERN,ARVIN,93203,20850,3885.0,1218,836.0,Lead (Pb),0.0,Arsenic,136.0,Iron (Fe),0.0
957,1510002,BORON CSD,KERN,BORON,93596,2253,3.0,99,95.0,Lead (Pb),0.0,Arsenic,12.0,Iron (Fe),0.0
958,1510003,CWS - BAKERSFIELD,KERN,SAN JOSE,95112-4508,258035,69810.0,4734,1209.0,Lead (Pb),6.0,Arsenic,84.0,Iron (Fe),3.0
959,1510004,"CASA LOMA WATER CO, INC.",KERN,BAKERSFIELD,93307,900,248.0,20,7.0,Lead (Pb),1.0,Arsenic,0.0,Iron (Fe),0.0
960,1510005,"DELANO, CITY OF",KERN,DELANO,93215,56623,9544.0,2888,1702.0,Lead (Pb),0.0,Arsenic,270.0,Iron (Fe),0.0
